name,website,phone,city,county,state
Ace Llc,www.ace1ace.com,1-205-853-0040,"Birmingham, Alabama 35215",Located in Jefferson County,alabama
Alabama Professional Service,www.alabamaprofessional.com/index.php,1-256-721-5960,"Dothan, Alabama 36301",Located in Houston County,alabama
Beebee's Pest & Termite,www.beebespest.com,1-251-943-8166,"Foley, Alabama 36535",Located in Baldwin County,alabama
Cook's Pest Control,cookspest.com,1-256-845-1517,"Albertville, Alabama 35950",Located in Marshall County,alabama
ETX Pest Control Service,www.etxpro.com,1-205-426-0381,"Vestavia, Alabama 35216",Located in Jefferson County,alabama
Extermco,extermcopest.com,1-855-983-7626,"Talladega, Alabama 35160",Located in Talladega County,alabama
Guaranty Pest Control Inc,www.guarantypestcontrol.com,1-256-237-8549,"Anniston, Alabama 36201",Located in Calhoun County,alabama
Marksman Pest Control,www.marksmanpestcontrol.com,1-205-401-3410,"Birmingham, Alabama 35209",Located in Jefferson County,alabama
Mighty Pest Control Inc,www.mightypest.com,1-256-543-3752,"Gadsden, Alabama 35904",Located in Etowah County,alabama
Mosquito Squad of the Wiregrass,wiregrass.mosquitosquad.com,1-334-405-7964,"Hoover, Alabama 35216",Located in Jefferson County,alabama
Shoals Pest Control,www.shoalspestcontrol.net,1-256-383-8158,"Florence, Alabama 35630",Located in Lauderdale County,alabama
Wet Pets,www.wetpetsdothan.com,1-334-792-9401,"Dothan, Alabama 36303",Located in Houston County,alabama
Alaska Sea-Ag,www.alaskasea-ag.com,1-907-745-5725,"Palmer, Alaska 99645",Located in Matanuska-Susitna County,alaska
Nuisance Wildlife Management,www.nuisancewildlifemanagement.com,1-907-373-9953,"Wasilla, Alaska 99654",Located in Matanuska-Susitna County,alaska
Tall Trees,www.talltreesalaska.com,1-907-248-3900,"Anchorage, Alaska 99518",Located in Anchorage County,alaska
Adams Pest Control,www.pestcontrolbyadams.com,1-501-268-8623,"Searcy, Arkansas 72143",Located in White County,arkansas
Arkansas Extermination,www.arkansasextermination.com,1-501-941-7449,"Cabot, Arkansas 72023",Located in Lonoke County,arkansas
Gilbert Industries Inc,www.gilbertinc.com,1-870-932-6070,"Jonesboro, Arkansas 72401",Located in Craighead County,arkansas
Hopper Termite & Pest MGMT Inc,www.hoppertermite.com,1-870-425-4122,"Mountain Home, Arkansas 72653",Located in Baxter County,arkansas
Hopper Termite Control Inc,hopperpest.com,1-501-362-8251,"Heber Springs, Arkansas 72543",Located in Cleburne County,arkansas
Northeast Ark Termite & Pest,www.neapest.com,1-870-932-3713,"Jonesboro, Arkansas 72401",Located in Craighead County,arkansas
AAA Africanized Bee Removal Specialists,www.aaabeeremoval.com,1-520-743-8000,"Tucson, Arizona 85745",Located in Pima County,arizona
All Clear Pest Control,www.allclearaz.com,1-602-598-5084,"Queen Creek, Arizona 85142",Located in Maricopa County,arizona
All Guard Pest Control,allguardpc.com,1-480-857-8671,"Chandler, Arizona 85225",Located in Maricopa County,arizona
All Statewide Termite & Pest,allstatewidepest.com,1-480-722-2563,"Chandler, Arizona 85225",Located in Maricopa County,arizona
Ambassador Pest Control,ambassadorpestcontrol.com,1-602-544-0515,"Phoenix, Arizona 85016",Located in Maricopa County,arizona
Amera Sun City Pest Control,amerasuncitypest.com,1-623-979-6467,"Youngtown, Arizona 85363",Located in Maricopa County,arizona
Arizona Heat Pest Services,azheatpest.com,1-602-903-3375,"Phoenix, Arizona 85032",Located in Maricopa County,arizona
Arizona Pest Control,azpest.com,1-520-298-9778,"Tucson, Arizona 85712",Located in Pima County,arizona
Arizona Termite Control,www.termite-control-mesa.com/,1-480-582-0996,"Phoenix, Arizona 85004",Located in Maricopa County,arizona
Arizona Wings N Stings,www.azwns.com,1-480-969-2337,"Phoenix, Arizona 85022",Located in Maricopa County,arizona
Arizona Wings N Stings,www.pigeoncontrol.biz,1-602-942-6550,"Phoenix, Arizona 85033",Located in Maricopa County,arizona
Bad Bug Pest Service,www.badbugpest.com,1-602-494-6542,"Phoenix, Arizona 85032",Located in Maricopa County,arizona
Bill's Pest & Termite Company,billstermiteco.com,1-623-412-5983,"Phoenix, Arizona 85085",Located in Maricopa County,arizona
Bircher Exterminating Service,www.bircherexterminating.com,1-602-861-9800,"Phoenix, Arizona 85023",Located in Maricopa County,arizona
Bircher Exterminating Service Inc,bircherexterminating.com,1-623-486-9000,"Peoria, Arizona 85385",Located in Maricopa County,arizona
Budge Pest Control,www.budgetpestcontrol.co/,1-520-290-8010,"Tucson, Arizona 85743",Located in Pima County,arizona
Burns Pest Elimination,burnspestelimination.com,1-602-971-4782,"Phoenix, Arizona 85053",Located in Maricopa County,arizona
Contractors Termite & Pest,www.contractorstermite.com,1-623-780-0908,"Phoenix, Arizona 85085",Located in Maricopa County,arizona
Critter Getter Pest Control,www.azcrittergetter.com,1-480-984-2660,"Mesa, Arizona 85205",Located in Maricopa County,arizona
Desert Sky Pest Control,www.azbugman.com,1-602-402-1092,"Glendale, Arizona 85310",Located in Maricopa County,arizona
Desert Wildlife Services,www.desertwildlifeservices.com,1-520-743-1411,"Tucson, Arizona 85743",Located in Pima County,arizona
General Exterminating,generalx.com,1-623-977-2100,"Youngtown, Arizona 85363",Located in Maricopa County,arizona
Invader Pest Management,www.invader.net,1-623-435-0228,"Glendale, Arizona 85301",Located in Maricopa County,arizona
Ky-Ko Pest Control,www.kykopestprevention.com,1-480-964-8900,"Mesa, Arizona 85215",Located in Maricopa County,arizona
Lady Bug Publishing Inc,www.ladybugcorp.com,1-480-833-1111,"Mesa, Arizona 85203",Located in Maricopa County,arizona
Mr Pack Rat Inc,www.mrpackrat.net,1-520-529-9191,"Tucson, Arizona 85716",Located in Pima County,arizona
Phoenix Bed Bug Expert,www.phoenixbedbugexpert.com,1-623-552-4815,"Phoenix, Arizona 85016",Located in Maricopa County,arizona
Phoenix Bed Bug Expert,www.phoenixbedbugexpert.com,1-623-552-4815,"Phoenix, Arizona 85226",Located in Maricopa County,arizona
Phoenix Pest & Termite Control,phoenixpest.com,1-520-881-8875,"Phoenix, Arizona 85009",Located in Maricopa County,arizona
Premier Pest Management Inc,www.premierpest.com,1-480-816-9388,"Fountain Hills, Arizona 85268",Located in Maricopa County,arizona
Protection Termite,protectiontermitecontrol.com,1-602-569-3111,"Tempe, Arizona 85282",Located in Maricopa County,arizona
RidABird Pest and Termite Control,ridabirdpestcontrol.com,1-623-587-0125,"Phoenix, Arizona 85086",Located in Maricopa County,arizona
Seal Out Scorpions,sealoutscorpions.com/,1-480-820-7325,"Tempe, Arizona 85283",Located in Maricopa County,arizona
Sexton Pest Control,www.sextonpestcontrol.com,1-602-942-3653,"Phoenix, Arizona 85009",Located in Maricopa County,arizona
Sours Pest Control Services LLC,www.sourspestcontrol.com,1-623-330-8751,"Phoenix, Arizona 85032",Located in Maricopa County,arizona
Spray Plus Pest Control Inc,www.sprayplus.com,1-480-503-0424,"Mesa, Arizona 85213",Located in Maricopa County,arizona
Termagon Inc,www.termagon.com,1-520-322-9211,"Tucson, Arizona 85705",Located in Pima County,arizona
Tessenderlo Kerley Inc,www.tkinet.com,1-602-889-8300,"Phoenix, Arizona 85008",Located in Maricopa County,arizona
Titan Pest Control,www.titanpest.com,1-623-879-8700,"Anthem, Arizona 85086",Located in Maricopa County,arizona
Unitech Exterminating,www.unitechaz.com,1-602-863-4042,"Phoenix, Arizona 85024",Located in Maricopa County,arizona
University Termite & Pest Control Inc,be-pest-free.com/,1-520-886-4146,"Tucson, Arizona 85714",Located in Pima County,arizona
Wolf Pest Control,www.wolfpest.com,1-602-493-7100,"Phoenix, Arizona 85024",Located in Maricopa County,arizona
A Wildlife Exclusion Service,www.awces.com,1-707-992-0276,"Petaluma, California 94952",Located in Sonoma County,california
A-1 Unique Insect Control,a-1unique.com,1-916-961-7945,"Citrus Heights, California 95621",Located in Sacramento County,california
Adaptive Pest Control,www.adaptivepestcontrol.com,1-707-935-9545,"Sonoma, California 95476",Located in Sonoma County,california
Adaptive-Pest Control,www.adaptivepestcontrol.com,1-707-935-9545,"Boyes Hot Springs, California 95416",Located in Sonoma County,california
Ailing House Pest Control,www.ailinghouse.com,1-831-624-8211,"Carmel, California 93923",Located in Monterey County,california
Alameda County Offices - Mosquito Abatement,www.mosquitoes.org,1-510-783-7744,"Hayward, California 94545",Located in Alameda County,california
Anchor Pest Control,www.anchorpest.com,1-209-536-1981,"Sonora, California 95370",Located in Tuolumne County,california
Arden Termite Service,www.ardentermite.com,1-916-338-4700,"Sacramento, California 95841",Located in Sacramento County,california
Area-Wide Exterminators,www.areawidepest.com,1-209-464-4731,"Stockton, California 95204",Located in San Joaquin County,california
Aspen Pest Management,www.aspen-pest.com,1-530-753-7378,"Davis, California 95616",Located in Yolo County,california
Associates Insectary,associatesinsectary.com,1-805-933-1301,"Santa Paula, California 93060",Located in Ventura County,california
Atco Pest Control,atcopestcontrol.com,1-415-898-2282,"Novato, California 94947",Located in Marin County,california
Atlas Tree Service & Pest Control,www.atlastreeservice.com,1-925-687-3631,"Concord, California 94520",Located in Contra Costa County,california
Bartlett Tree Experts,www.bartlett.com/locations/San-Rafael-CA.cfm,1-415-472-4300,"San Rafael, California 94901",Located in Marin County,california
Bay Valley Pest Control,www.bayvalleypest.com,1-408-370-1603,"Campbell, California 95008",Located in Santa Clara County,california
Bee Company,beepest.com,1-925-634-4417,"Brentwood, California 94513",Located in Contra Costa County,california
Better Pest Control,www.betterpest.com,1-559-294-8286,"Fresno, California 93726",Located in Fresno County,california
Bez Valley Pest Control,www.bezvalleypestcontrol.net/,1-661-613-2011,"Bakersfield, California 93312",Located in Kern County,california
Birds Away Pigeons Away,www.birdsaway.com,1-925-798-9040,"Concord, California 94520",Located in Contra Costa County,california
Brentwood Pest Control,discoverypest.com,1-925-634-2221,"Brentwood, California 94513",Located in Contra Costa County,california
Burge Termite & Pest Controls,www.burgepest.com,1-510-523-6100,"Alameda, California 94501",Located in Alameda County,california
Bust A Bug Pest Management,www.bust-a-bug.com,1-925-382-4369,"Brentwood, California 94513",Located in Contra Costa County,california
Cal Oaks Termite,www.caloakstermite.com,1-951-698-8198,"Murrieta, California 92562",Located in Riverside County,california
Cascade Pest Systems,www.cascadepestsystems.com,1-707-446-7760,"Vacaville, California 95687",Located in Solano County,california
Chemical Landscape Management,www.provhort.com,1-559-251-7907,"Fresno, California 93727",Located in Fresno County,california
Coachella Valley Mosquito,cvmvcd.org,1-760-342-8287,"Indio, California 92201",Located in Riverside County,california
Compass Pest Management,www.bye2bugs.com,1-951-688-8066,"Riverside, California 92504",Located in Riverside County,california
Crane Pest Control,cranepestcontrol.com,1-415-922-1789,"San Francisco, California 94118",Located in San Francisco County,california
Crane Pest Control,www.cranepestcontrol.com,1-415-922-1666,"San Francisco, California 94118",Located in San Francisco County,california
Crazy Ant Pest Control,crazyantpest.com,1-559-295-5010,"Fresno, California 93722",Located in Fresno County,california
Crazy Ant Pest Control,www.crazyantpest.com,1-559-317-6336,"Fresno, California 93726",Located in Fresno County,california
Davco,www.davcotermite.com,1-707-443-9642,"Eureka, California 95501",Located in Humboldt County,california
Driskell Fumigation Inc,www.driskellfumigation.com,1-408-920-6353,"San Jose, California 95112",Located in Santa Clara County,california
Dustin Pest Control,www.dustinpestcontrol.com/,1-559-275-2253,"Fresno, California 93722",Located in Fresno County,california
Dynamite Exterminators,www.dynamiteexterminators.com,1-209-578-2847,"Modesto, California 95354",Located in Stanislaus County,california
Earl's Pest Control,earlspestcontrol.com,1-408-286-2497,"San Jose, California 95112",Located in Santa Clara County,california
Earthwise Pest Management,www.myearthwisepest.com,1-916-668-8888,"Carmichael, California 95608",Located in Sacramento County,california
Ecola Termite & Pest Control,www.ecolatermite.com/homepage/,1-805-925-2847,"Santa Maria, California 93455",Located in Santa Barbara County,california
Economy Pest Control Inc,www.economypestcontrol.com,1-530-273-1766,"Grass Valley, California 95949",Located in Nevada County,california
Economy Pest Control Inc,www.economypestcontrol.com,1-916-632-6802,"Rocklin, California 95677",Located in Placer County,california
Floraterra Landscape MGMT,floraterra.com,1-408-275-1200,"San Jose, California 95125",Located in Santa Clara County,california
Gavilan Pest Control,www.gavilanpestcontrol.com,1-831-637-6409,"Salinas, California 93906",Located in Monterey County,california
Global Pest Solutions,www.callgpsnow.com,1-866-447-4867,"Riverside, California 92508",Located in Riverside County,california
Go-Pher The Kill - Gopher & Pest Control,www.gopherthekill.com,1-951-977-8183,"Riverside, California 92505",Located in Riverside County,california
Golden Eagle Pest Control,www.goldeneaglepestcontrol.com,1-916-685-3322,"Elk Grove, California 95759",Located in Sacramento County,california
Grab-N-Grow Soil Products,www.grabngrowsoil.com,1-707-575-7275,"Santa Rosa, California 95407",Located in Sonoma County,california
Hi-Tech Termite Control Inc,www.hitechtermite.com,1-510-887-1100,"Hayward, California 94545",Located in Alameda County,california
Homeguard Inc,homeguard.com,1-408-993-1900,"San Jose, California 95112",Located in Santa Clara County,california
House Detective Termite Cntrl,www.hdetective.com,1-530-894-7900,"Chico, California 95928",Located in Butte County,california
Hydrex Pest Control Of The North Bay Inc,hydrex.info/,1-707-769-1937,"Petaluma, California 94952",Located in Sonoma County,california
J & M Termite Control Inc,jmtermite.com,1-650-969-5556,"Mountain View, California 94043",Located in Santa Clara County,california
Animal News,news.regionaldirectory.us/animal.php,about the topic,Recent news headlines,Animal,california
Jeff's Pest Control Service,www.jeffspest.com,1-530-247-1802,"Redding, California 96003",Located in Shasta County,california
Lakeside Termite & Pest,www.TahoeTermite.com,1-530-577-0500,"South Lake Tahoe, California 96150",Located in El Dorado County,california
Lingruen Associates,lingruen.com,1-415-822-2324,"San Francisco, California 94124",Located in San Francisco County,california
Little David Pest Control,www.littledavidpestcontrol.com,1-408-294-1955,"San Jose, California 95126",Located in Santa Clara County,california
Marin Termite Control CO Inc - Novato,www.marintermite.com,1-415-883-8425,"San Rafael, California 94901",Located in Marin County,california
Marin Termite Control Company,www.marintermite.com,1-415-456-9620,"San Rafael, California 94901",Located in Marin County,california
Mighty Men Pest Control,www.mightymenpestcontrol.com,1-650-309-1841,"San Mateo, California 94402",Located in San Mateo County,california
Modesto Pest,modestopest.com/,1-209-447-0767,"Modesto, California 95355",Located in Stanislaus County,california
Monterey Bay Pest Control Inc,www.montereybaypestcontrol.com,1-831-394-7574,"Seaside, California 93955",Located in Monterey County,california
Morse Termite Control,www.morsetermite.com,1-559-325-9400,"Clovis, California 93612",Located in Fresno County,california
Mountain Termite & Pest,www.mountaintermite.com,1-530-541-1322,"South Lake Tahoe, California 96150",Located in El Dorado County,california
Mr. Attic - Insulation and Pest Control Specialists,www.mr-attic.com,1-925-400-8441,"Pleasant Hill, California 94523",Located in Contra Costa County,california
Neighborly Pest Management Inc,www.neighborlypest.com,1-916-624-0674,"Roseville, California 95678",Located in Placer County,california
New West Pest Control,www.newwestpestcontrol.com,1-707-942-5451,"Santa Rosa, California 95405",Located in Sonoma County,california
Northcoast Exterminators,www.bugsorus.com,1-707-443-8644,"Eureka, California 95503",Located in Humboldt County,california
Omega Termite & Pest Control,www.omega-homeservices.com,1-510-562-1333,"Oakland, California 94621",Located in Alameda County,california
Orange Guard,orangeguard.com,1-831-659-3217,"Carmel Valley, California 93924",Located in Monterey County,california
PBM Supply & MFG Inc,www.pbmsprayers.com,1-951-696-5477,"Murrieta, California 92562",Located in Riverside County,california
Peaceful Valley Farm & Garden,www.groworganic.com,1-530-272-4769,"Grass Valley, California 95945",Located in Nevada County,california
Pest Control Operators of CA,pcoc.org,1-916-372-4363,"West Sacramento, California 95691",Located in Yolo County,california
Pestec,www.pestec.com,1-925-757-2945,"Antioch, California 94531",Located in Contra Costa County,california
Pinnacle Pest Control,www.pinnaclepest.com,1-916-321-9199,"Sacramento, California 95818",Located in Sacramento County,california
Powerful Pest Management,www.powerfulpestmanagement.com,1-760-771-1656,"Palm Desert, California 92260",Located in Riverside County,california
Problem Wildlife Management,www.problemwildlifemanagement.com,1-530-227-4266,"Redding, California 96003",Located in Shasta County,california
Professional Spray,pro-spray.com,1-909-888-2015,"San Bernardino, California 92408",Located in San Bernardino County,california
Proof It,www.proofitpest.com,1-650-359-8958,"Pacifica, California 94044",Located in San Mateo County,california
Props Tree & Landscape Inc,www.propstreecare.com,1-916-923-2507,"Sacramento, California 95838",Located in Sacramento County,california
RES Com Pest Control,www.rescompestcontrol.com,1-559-685-8989,"Tulare, California 93274",Located in Tulare County,california
Rincon-Vitova Insectaries Inc,www.rinconvitova.com,1-805-643-5407,"Ventura, California 93001",Located in Ventura County,california
Rockwood Chemical Company,rockwoodchemical.com,1-760-344-0916,"Brawley, California 92227",Located in Imperial County,california
Rodent Pest Technologies,rodentpesttech.com,1-951-509-5594,"Riverside, California 92503",Located in Riverside County,california
San Miguel Termite & Construction Inc,www.smtcinc.com,1-925-686-5541,"Concord, California 94521",Located in Contra Costa County,california
Southland Pest Control,pestsexterminatorriversideca.com,1-951-616-1917,"Riverside, California 92504",Located in Riverside County,california
Specialty Termite Inc,www.specialtytermite.com,1-925-249-9611,"Pleasanton, California 94566",Located in Alameda County,california
Summit Termite & Pest Control,www.summittermite.com,1-805-480-3648,"Newbury Park, California 91320",Located in Ventura County,california
Sunrise Pest Control,www.sunrisepestcontrol.net,1-916-944-7378,"Carmichael, California 95608",Located in Sacramento County,california
Tahoe City Termite,www.tctermite.com,1-530-583-3540,"Tahoe City, California 96145",Located in Placer County,california
Thrasher Termite & Pest Control Inc,www.thrashertermite.com,1-408-354-9944,"San Jose, California 95125",Located in Santa Clara County,california
Tiger Termite Control,tigertermite.com,1-909-597-6953,"Chino Hills, California 91709",Located in San Bernardino County,california
Times Up Termite Control,www.timesuptermite.com,1-510-568-7200,"San Leandro, California 94577",Located in Alameda County,california
Turlock Mosquito Abatement Dist.,www.mosquitoturlock.com,1-209-634-1234,"Turlock, California 95380",Located in Stanislaus County,california
Valley Animal Center,valleyanimal.org,1-559-233-8690,"Fresno, California 93726",Located in Fresno County,california
Vineyard Valley Pest Control,vvpest.com,1-951-676-6760,"Temecula, California 92590",Located in Riverside County,california
West Oaks Pest Control,westoakspestcontrol.com,1-805-642-6077,"Ventura, California 93004",Located in Ventura County,california
Wolfx Pest Management,www.wolfxpest.com/,1-559-720-8977,"Fresno, California 93722",Located in Fresno County,california
Woodland Davis Termite & Pest,www.thelocalguys.net,1-530-662-1234,"Woodland, California 95776",Located in Yolo County,california
Woodland-Davis Termite & Pest Control,www.thelocalguys.net,1-707-678-1234,"Woodland, California 95776",Located in Yolo County,california
Agrium US Inc,www.agrium.com,1-303-804-4400,"Denver, Colorado 80237",Located in Denver County,colorado
Anchor Pest Control Service Inc,www.anchorpest.net,1-303-239-0559,"Denver, Colorado 80212",Located in Denver County,colorado
Bioswat Inc,bioswat.com,1-303-443-9845,"Boulder, Colorado 80302",Located in Boulder County,colorado
Bite Back Bed Bug Removal LLC,www.bitebackbedbugremoval.com,1-720-940-3598,"Westminster, Colorado 80030",Located in Adams County,colorado
Bug Man,denverpestcontrol.com,1-303-252-1770,"Eastlake, Colorado 80614",Located in Adams County,colorado
Colorado Pest Pros,www.pestcontrollakewood.com,1-720-422-1083,"Denver, Colorado 80227",Located in Jefferson County,colorado
Fort Collins Tree Care,www.fctreecare.com,1-970-484-3084,"Fort Collins, Colorado 80524",Located in Larimer County,colorado
Great Western Inorganics Inc,greatwesterninorganics.com,1-303-423-9770,"Arvada, Colorado 80007",Located in Jefferson County,colorado
Heat Pro- Bed Bug Exterminator and Removal,www.bedbugheatpro.com/,1-303-435-2199,"Denver, Colorado 80220",Located in Denver County,colorado
Jerry's Pest Control,www.jerryspestcontrol.com,1-970-242-7455,"Grand Junction, Colorado 81501",Located in Mesa County,colorado
Pest Control Centennial,www.pestcontrolcentennial.com,1-720-605-1073,"Aurora, Colorado 80015",Located in Arapahoe County,colorado
Schultz Honey & Wax Inc,www.beeremover.com,1-303-425-1896,"Arvada, Colorado 80003",Located in Jefferson County,colorado
SOCO Pest Away,www.socopestaway.com,1-719-547-8761,"Pueblo, Colorado 81007",Located in Pueblo County,colorado
Abair-Lavery Inc,www.abairlavery.com,1-860-953-9000,"West Hartford, Connecticut 06110",Located in Hartford County,connecticut
ABC Exterminating & Lawn,www.abcbug.com,1-203-254-7671,"Norwalk, Connecticut 06855",Located in Fairfield County,connecticut
Animal Evictions,www.animalevictions.com,1-860-437-0770,"New London, Connecticut 06320",Located in New London County,connecticut
Animal Evictions LLC,www.animalevictions.com,1-860-774-2789,"Dayville, Connecticut 06241",Located in Windham County,connecticut
Biosensory Insect Control,biosensory.com,1-860-928-1113,"Putnam, Connecticut 06260",Located in Windham County,connecticut
Envirocare,www.envirocarepestcontrol.net,1-888-879-6481,"Wolcott, Connecticut 06716",Located in New Haven County,connecticut
Envirocare Pest Control LLC,www.envirocarepestcontrol.net,1-203-879-6481,"Wolcott, Connecticut 06716",Located in New Haven County,connecticut
Fox Pest Control,foxpestservice.com,1-203-660-0988,"Oxford, Connecticut 06478",Located in New Haven County,connecticut
Guardian Pest Control LLC,www.guardian-pest.com,1-860-676-1500,"Farmington, Connecticut 06032",Located in Hartford County,connecticut
Hoffman Landscapes,hoffmanlandscapes.com,1-203-834-9656,"Wilton, Connecticut 06897",Located in Fairfield County,connecticut
J & J Pest Control,www.jandjpestcontrol.com,1-203-440-0205,"Meriden, Connecticut 06451",Located in New Haven County,connecticut
Mosquito Squad of Lyme,lyme.mosquitosquad.com,1-860-876-7368,"Norwalk, Connecticut 06854",Located in Fairfield County,connecticut
Patriot Pest Solutions,patriotpestsolutions.com,1-203-949-9989,"Wallingford, Connecticut 06492",Located in New Haven County,connecticut
Pest Control CT,pestcontrol-ct.com/,1-203-617-0977,"Seymour, Connecticut 06478",Located in New Haven County,connecticut
Professional Exterminating,www.profext.com,1-860-663-2817,"Killingworth, Connecticut 06419",Located in Middlesex County,connecticut
Sandweiss Tree Service Inc,www.sandweisstrees.com,1-203-624-2085,"Hamden, Connecticut 06514",Located in New Haven County,connecticut
Shoreline Wildlife and Pest Control,www.shorelinewildlife.com,1-860-552-4529,"Clinton, Connecticut 06413",Located in Middlesex County,connecticut
Termicare Pest Control,www.termicare.com,1-860-482-3887,"Torrington, Connecticut 06790",Located in Litchfield County,connecticut
"Tick Control, LLC",www.tickcontrolllc.com,1-888-910-8425,"Trumbull, Connecticut 06611",Located in Fairfield County,connecticut
Western Pest Services,www.westernpest.com/locations/connecticut/norwalk/,1-877-957-9398,"Norwalk, Connecticut 06851",Located in Fairfield County,connecticut
Wilcox Tree Experts LLC,www.wilcoxtreeexperts.com,1-203-245-6727,"Old Lyme, Connecticut 06371",Located in New London County,connecticut
Wildlife Control Service LLC,www.wildlifecontrolservicesct.com,1-860-236-2683,"West Hartford, Connecticut 06133",Located in Hartford County,connecticut
Wildlife Control Services LLC,www.wildlifecontrolservicesct.com/,1-860-674-1291,"West Hartford, Connecticut 06133",Located in Hartford County,connecticut
Willington Termite & Pest,www.willingtonpest.com,1-860-429-1029,"Willington, Connecticut 06279",Located in Tolland County,connecticut
Reliable Home Inspection Service,reliablehomeinspection.org,1-302-429-7671,"Wilmington, Delaware 19807",Located in New Castle County,delaware
1st Florida Termite and Pest,www.firstfloridatermitepestcontrol.com,1-941-355-9700,"Sarasota, Florida 34243",Located in Manatee County,florida
A Greener Image Inc,www.agreenerimage.biz,1-904-739-8090,"Jacksonville, Florida 32207",Located in Duval County,florida
A-2-Z Termite & Pest Control,a2zpest.com,1-352-732-7280,"Ocala, Florida 34470",Located in Marion County,florida
A-Niks,www.aniks.com,1-941-360-0774,"Sarasota, Florida 34243",Located in Manatee County,florida
Abode Pest Solutions,www.AbodePestSolutions.com,1-407-330-4477,"Sanford, Florida 32771",Located in Seminole County,florida
Ace Pest Management,www.acepestmanagement.com,1-941-629-4223,"Port Charlotte, Florida 33952",Located in Charlotte County,florida
Advantage Pest Related Service Inc,www.advantagepest.com,1-954-968-7717,"Pompano Beach, Florida 33069",Located in Broward County,florida
Advantage Services Inc,advantagepest.net,1-386-672-0097,"Ormond Beach, Florida 32174",Located in Volusia County,florida
Akin Pest Prevention Plus,www.akinpest.com,1-321-984-2888,"Melbourne, Florida 32904",Located in Brevard County,florida
All Gone LLC,www.allgone-llc.com,1-941-484-4434,"Nokomis, Florida 34275",Located in Sarasota County,florida
Alpine Farms,www.alpinefarms-bees.com,1-305-579-9796,"Miami, Florida 33131",Located in Miami-Dade County,florida
Angus Termite & Pest Control,www.anguspestcontrol.com,1-772-223-9891,"Palm City, Florida 34990",Located in Martin County,florida
Arrow Environmental Service,arrowservices.com,1-941-485-2455,"Sarasota, Florida 34240",Located in Sarasota County,florida
Arrow Services of Orlando,www.arrowservices.com/,1-407-740-8070,"Naples, Florida 34104",Located in Collier County,florida
Art Pest Control Service,artpestcontrol.com,1-954-630-3508,"Fort Lauderdale, Florida 33334",Located in Broward County,florida
B & C Pest Control Inc,www.bcpestcontrol.com,1-407-330-2644,"Sanford, Florida 32771",Located in Seminole County,florida
Bee Removal Miami FL,www.beeremovalmiamifl.com,1-786-554-0245,"Miami, Florida 33174",Located in Miami-Dade County,florida
Brock Lawn & Pest Control,brockpest.com,1-850-265-5702,"Lynn Haven, Florida 32444",Located in Bay County,florida
Brock Lawn & Pest Control Inc,www.brockpest.com,1-850-482-7345,"Marianna, Florida 32446",Located in Jackson County,florida
Bug Away Specialists Inc,www.4bugaway.com,1-904-260-7828,"Jacksonville, Florida 32256",Located in Duval County,florida
Bug Brigade,bugbrigade.com,1-407-323-3239,"Sanford, Florida 32771",Located in Seminole County,florida
Bug Busters Do-It-Yourself Pest Control,www.pestcontroloutletstore.com,1-727-845-3539,"New Port Richey, Florida 34653",Located in Pasco County,florida
Bug Master Inc,bugmasterfla.com,1-386-253-9600,"Daytona Beach, Florida 32114",Located in Volusia County,florida
"Bug Out Service of West Florida, Inc.",www.bugoutwf.com,1-850-478-6289,"Gulf Breeze, Florida 32561",Located in Santa Rosa County,florida
Bulldog Pest Control,www.BulldogPest.com,1-813-365-1818,"Durant, Florida 33530",Located in Hillsborough County,florida
Busy Bee Termite-Pest Control,www.bugus.com,1-904-880-1880,"Jacksonville, Florida 32257",Located in Duval County,florida
Cannon Termite & Pest Control. Inc. - Lakeland,www.cannonpest.com,1-863-667-2190,"Lakeland, Florida 33803",Located in Polk County,florida
Chet's Termite & Pest Management,chetspest.com,1-813-935-7554,"Tampa, Florida 33604",Located in Hillsborough County,florida
Choice Pest Management,www.choicepest.com,1-772-223-0255,"Fort Pierce, Florida 34982",Located in Saint Lucie County,florida
Choice Pest Management Inc - St Lucie,www.choicepest.com,1-772-871-7038,"Fort Pierce, Florida 34982",Located in Saint Lucie County,florida
Conrad E Burns Pest Eliminator,www.pesteliminators.org,1-941-766-0902,"Port Charlotte, Florida 33952",Located in Charlotte County,florida
Davis Exterminators,www.davisextinc.com,1-850-763-4142,"Panama City, Florida 32405",Located in Bay County,florida
Deans Pest Control,www.deanspestcontrol.com,1-352-787-5300,"Leesburg, Florida 34748",Located in Lake County,florida
Dixon Exterminating Inc,www.dixonext.com,1-850-997-3522,"Monticello, Florida 32344",Located in Jefferson County,florida
Do It Yourself Pest Control & Lawn,www.diy-pestcontrol.com,1-407-359-7191,"Oviedo, Florida 32765",Located in Seminole County,florida
Dunnellon Termite & Pest Cntrl,www.dunnellonpestcontrol.com,1-352-489-6773,"Dunnellon, Florida 34431",Located in Marion County,florida
East Flagler Mosquitor Control,www.flaglermosquito.com,1-386-445-4135,"Palm Coast, Florida 32137",Located in Flagler County,florida
ECOR Industries Hydraulics Inc,ecorpestcontrol.com,1-321-254-0923,"Melbourne, Florida 32935",Located in Brevard County,florida
Ed Reese's Premium Pest Cntrl,www.premiumpestcontrol.com,1-321-631-6606,"Melbourne, Florida 32935",Located in Brevard County,florida
Environmental Pest Systems,www.epsforu.com,1-954-755-9400,"Fort Lauderdale, Florida 33316",Located in Broward County,florida
Fleabusters Inc,www.fleabusters.com,1-954-351-9200,"Fort Lauderdale, Florida 33309",Located in Broward County,florida
Florida Pest Control Company,flapest.com,1-904-777-4460,"Jacksonville, Florida 32210",Located in Duval County,florida
Florida Pest Control-Chemical,flapest.com,1-904-396-5805,"Jacksonville, Florida 32207",Located in Duval County,florida
Florida Sun Termite & Pest,floridasunpestcontrol.com,1-850-926-3062,"Tallahassee, Florida 32310",Located in Leon County,florida
Florids Keys Mosquito Control,keysmosquito.org,1-305-292-7190,"Key West, Florida 33040",Located in Monroe County,florida
Fog Master Corporation,www.fogmaster.com,1-954-481-9975,"Deerfield Beach, Florida 33442",Located in Broward County,florida
Gator Pest Control Inc,gatorpestcontrol.com,1-321-253-1188,"Melbourne, Florida 32940",Located in Brevard County,florida
Globe Exterminators,www.globeexterminators.com,1-386-788-8020,"Port Orange, Florida 32129",Located in Volusia County,florida
Gold Web Pest Control Co Inc,www.goldwebpestcontrol.com,1-850-983-6454,"Pensacola, Florida 32526",Located in Escambia County,florida
Greentek Pest Service,www.pestservices.com,1-813-984-1114,"Tampa, Florida 33610",Located in Hillsborough County,florida
Halo Pest Management Inc,www.halopest.com,1-941-342-8838,"Sarasota, Florida 34232",Located in Sarasota County,florida
Household Termite & Pest Cntrl,www.yourbugguy.com,1-850-456-5009,"Milton, Florida 32570",Located in Santa Rosa County,florida
Animal News,news.regionaldirectory.us/animal.php,about the topic,Recent news headlines,Animal,florida
L L Lanier & Son's Tupelo HNY,www.lltupelohoney.com,1-850-639-2371,"Wewahitchka, Florida 32465",Located in Gulf County,florida
Mosquito Net,www.mosquitosnomore.com,1-305-853-7118,"Islamorada, Florida 33036",Located in Monroe County,florida
My Florida Bug Man,myfloridabugman.com,1-904-289-7171,"Jacksonville, Florida 32234",Located in Duval County,florida
Nature Coast Pest Control,www.naturecoastpestcontrol.com,1-727-945-7636,"Holiday, Florida 34691",Located in Pasco County,florida
Neelco Industries,www.neelco.biz,1-321-632-5303,"Cocoa, Florida 32922",Located in Brevard County,florida
Nix Pest Management Inc,nixpest.com,1-321-269-3440,"Cocoa, Florida 32927",Located in Brevard County,florida
Nuisance Wildlife Relocation,wildlifetrapper.com,1-941-729-2103,"Bradenton Beach, Florida 34217",Located in Manatee County,florida
One Two Tree Inc.,onetwotree.com/,1-305-267-1426,"Miami, Florida 33155",Located in Miami-Dade County,florida
Patrick Exterminating Inc,www.patrickexterminating.com,1-772-546-3722,"Stuart, Florida 34997",Located in Martin County,florida
Pearce Power Spraying & Pest,www.ppspest.com,1-321-728-1533,"Melbourne, Florida 32904",Located in Brevard County,florida
Peninsular Pest Control,www.crittergitter.com,1-904-389-3494,"Jacksonville, Florida 32204",Located in Duval County,florida
Penisular Pest Control Service Inc,crittergitter.com,1-904-940-3456,"Jacksonville, Florida 32204",Located in Duval County,florida
Pest Professional Service,www.pestproservices.com,1-954-962-2330,"Hollywood, Florida 33021",Located in Broward County,florida
Pest Solutions Of Tampa Bay,www.pestsolutionsoftampabay.com,1-813-496-0407,"Tampa, Florida 33629",Located in Hillsborough County,florida
Pest Solutions of Tampa Bay,pestsolutionsoftampabay.com,1-813-496-0407,"Tampa, Florida 33615",Located in Hillsborough County,florida
Pestex Termite & Pest Control Inc,pestexweb.com,1-813-960-7378,"Tampa, Florida 33614",Located in Hillsborough County,florida
PestWest USA LLC,www.pestwest.com,1-941-358-1983,"Sarasota, Florida 34234",Located in Sarasota County,florida
Pickhardt Professional Service Inc,www.pickhardtservices.com,1-941-729-6022,"Palmetto, Florida 34221",Located in Manatee County,florida
Port Orange Pest Control Inc,portorangepest.com,1-386-788-4006,"Port Orange, Florida 32129",Located in Volusia County,florida
Professional Pest Control,www.pestproducts.com,1-850-944-4567,"Pensacola, Florida 32526",Located in Escambia County,florida
Reynolds Pest Management,www.reynoldspest.com,1-772-337-2131,"Port Saint Lucie, Florida 34952",Located in Saint Lucie County,florida
Royal Green Landscape Spray,www.royalgreenlandscape.com,1-772-334-1144,"Jensen Beach, Florida 34957",Located in Martin County,florida
Royal Pest Service Inc,www.royalpestservices.com,1-904-886-2847,"Jacksonville, Florida 32256",Located in Duval County,florida
Santiano Brothers Inc,www.santianobrothers.com,1-305-595-7566,"Miami, Florida 33176",Located in Miami-Dade County,florida
Service Choice Lawn & Pest,www.servicechoice.net,1-954-568-9955,"Oakland Park, Florida 33334",Located in Broward County,florida
Shoo Fly,www.shoo-fly.com,1-352-351-5858,"Ocala, Florida 34482",Located in Marion County,florida
Slug - A - Bug Pest Control,www.slugabug.com,1-321-259-7844,"Melbourne, Florida 32935",Located in Brevard County,florida
Strategic Home Service Inc,strategicpestcontrol.com,1-239-540-0415,"Cape Coral, Florida 33914",Located in Lee County,florida
Superior Termite & Pest,www.superiorpestonline.com,1-850-473-9044,"Pensacola, Florida 32534",Located in Escambia County,florida
Target Pest Control Corporation,targetpestcontrolonline.com,1-305-262-2322,"Miami, Florida 33155",Located in Miami-Dade County,florida
Terma-Guard Inc.,www.termaguard.com,1-386-668-2838,"Deltona, Florida 32739",Located in Volusia County,florida
The Trapper Guy,www.tampawildliferemoval.com/,1-727-710-0373,"Tampa, Florida 33626",Located in Hillsborough County,florida
Tropicare Northbay,www.tropicaretermiteandpestcontrol.com,1-813-995-9711,"Land O Lakes, Florida 34638",Located in Pasco County,florida
Tropicare Termite & Pest Control,www.tropicaretermiteandpestcontrol.com,1-727-841-0388,"Land O Lakes, Florida 34638",Located in Pasco County,florida
Truly Nolen Pest Control,www.trulynolen.com/locations/FL/Valrico/Brandon.asp,1-941-833-0050,"Tallahassee, Florida 32312",Located in Leon County,florida
Ultimate Pest Management,www.ultimatepestmanagement.com,1-727-856-5620,"New Port Richey, Florida 34654",Located in Pasco County,florida
Univar USA,pestweb.com,1-305-883-9514,"Miami, Florida 33166",Located in Miami-Dade County,florida
Venice Pest Control Inc,www.venicepestcontrol.com,1-941-493-3030,"Venice, Florida 34285",Located in Sarasota County,florida
Vip Pest Control LLC,www.vippestcontrolllc.com,1-813-234-8888,"Tampa, Florida 33604",Located in Hillsborough County,florida
Wildlife Solutions,wildlifesolutions.com,1-407-722-8878,"Sanford, Florida 32773",Located in Seminole County,florida
Wisner Controls Inc,www.wisnercontrols.com,1-772-581-0477,"Sebastian, Florida 32958",Located in Indian River County,florida
A & A Termite & Pest Control,www.aatermitepest.com,1-706-776-1347,"Demorest, Georgia 30535",Located in Habersham County,georgia
Active Pest Control,www.activepestcontrol.com,1-770-954-9941,"McDonough, Georgia 30253",Located in Henry County,georgia
Adams Exterminators Inc,www.adams-exterminators.com,1-229-890-5839,"Moultrie, Georgia 31768",Located in Colquitt County,georgia
Advanced Services,www.bugstopper.com,1-706-860-0116,"Augusta, Georgia 30907",Located in Columbia County,georgia
Alexander Termite & Pest Cntrl,www.alexanderpest.com,1-770-448-9696,"Atlanta, Georgia 30340",Located in DeKalb County,georgia
All Professional Pest Services Inc,www.allpropestservices.com,1-404-699-9999,"Marietta, Georgia 30066",Located in Cobb County,georgia
All Service Termite & Pest,www.allservicetermite.com,1-770-932-2569,"Buford, Georgia 30518",Located in Gwinnett County,georgia
Any Pest,www.anypest.com,1-678-888-0035,"Kennesaw, Georgia 30144",Located in Cobb County,georgia
Athens Exterminating Inc,www.athensexterminating.net,1-706-546-7438,"Athens, Georgia 30601",Located in Clarke County,georgia
Bells Pest Control,www.bellspestcontrol.com,1-478-923-0661,"Warner Robins, Georgia 31088",Located in Houston County,georgia
Bizzy Bee Exterminators,www.bizzybeeexterminators.com,1-770-787-3718,"Oxford, Georgia 30054",Located in Newton County,georgia
Black Jade Rottweilers,blackjaderottweilers.com,1-678-754-3327,"Snellville, Georgia 30039",Located in Gwinnett County,georgia
Blease Exterminating LLC,www.bleaseexterminating.com,1-229-891-3501,"Moultrie, Georgia 31776",Located in Colquitt County,georgia
Bug Busters Inc,bugbustersusa.com,1-770-517-0200,"Woodstock, Georgia 30189",Located in Cherokee County,georgia
Carroll Exterminating,www.carrollext.com,1-770-253-1212,"Fayetteville, Georgia 30214",Located in Fayette County,georgia
Centurion Pest Management Co,www.centurionpestmanagement.com/,1-770-912-6324,"Atlanta, Georgia 30308",Located in Fulton County,georgia
Certified Pest Control,www.cpcoofga.com,1-770-682-5134,"Buford, Georgia 30515",Located in Gwinnett County,georgia
Clark Pest Remedy,www.clarkpestremedy.com,1-770-957-1915,"Mcdonough, Georgia 30253",Located in Henry County,georgia
Community Pest Solutions,www.communitypestsolutions.com,1-770-865-4427,"Woodstock, Georgia 30189",Located in Cherokee County,georgia
Coppermines Pest Control,www.copperminespestcontrol.com,1-706-864-9757,"Murrayville, Georgia 30564",Located in Hall County,georgia
Critter Catchers,www.critter-catchers.com,1-770-424-3080,"Acworth, Georgia 30102",Located in Cherokee County,georgia
Earth Conscious Pest Control,www.earthconsciouspc.com,1-770-619-5525,"Alpharetta, Georgia 30005",Located in Fulton County,georgia
Ever Redi Exterminating,www.everredi.com,1-770-909-7000,"Atlanta, Georgia 30349",Located in Fulton County,georgia
Expest Exterminating Inc,www.expest.net,1-770-938-3400,"Snellville, Georgia 30078",Located in Gwinnett County,georgia
GA Pest Control Association,www.gpca.org,1-770-417-1881,"Norcross, Georgia 30071",Located in Gwinnett County,georgia
Healthy Home Termite & Pest,www.pestzone.net,1-770-505-9040,"Acworth, Georgia 30101",Located in Cobb County,georgia
Horne's Pest Control,hornespestcontrol.com,1-706-863-5354,"Augusta, Georgia 30907",Located in Columbia County,georgia
Mosquito Joe of North Atlanta,northatlanta.mosquitojoe.com,1-404-996-1381,"Atlanta, Georgia 30350",Located in Fulton County,georgia
Multi-Pest Service Inc,www.multi-pest.com,1-770-834-1962,"Carrollton, Georgia 30117",Located in Carroll County,georgia
Northwest Exterminating,www.callnorthwest.com,1-912-998-0030,"Pooler, Georgia 31322",Located in Chatham County,georgia
Pacific Pest Solutions,www.pacificpestsolutions.com,1-678-553-4521,"Atlanta, Georgia 30316",Located in Fulton County,georgia
Pestban of Georgia Inc,www.pestbanofgeorgia.com,1-770-592-1121,"Woodstock, Georgia 30188",Located in Cherokee County,georgia
Pintex Exterminating,www.pintex.net,1-770-718-1766,"Oakwood, Georgia 30566",Located in Hall County,georgia
Preferred Pest Control,www.preferredpestcontrol.net,1-912-236-5135,"Savannah, Georgia 31405",Located in Chatham County,georgia
Prevail Pest Control,www.prevailpest.com,1-912-265-1277,"Brunswick, Georgia 31525",Located in Glynn County,georgia
Prevention Pest Control,www.preventionpest.com,1-770-978-5839,"Snellville, Georgia 30078",Located in Gwinnett County,georgia
Professional Pest Products Inc,www.doityourselftermitecontrol.com,1-770-904-3626,"Suwanee, Georgia 30024",Located in Gwinnett County,georgia
Residential Pest Management,www.rpmgeorgia.com,1-770-426-9563,"Rome, Georgia 30162",Located in Floyd County,georgia
Rid-A-Critter,www.ridacritter.com,1-706-354-4868,"Athens, Georgia 30601",Located in Clarke County,georgia
Rider Pest Control Company,www.riderpestcontrol.com,1-770-253-7333,"Newnan, Georgia 30263",Located in Coweta County,georgia
Savannah Bee Company,www.savannahbee.com,1-912-234-0688,"Savannah, Georgia 31404",Located in Chatham County,georgia
Sims Pest Control - Camilla,www.simspestcontrol.com,1-229-336-7070,"Albany, Georgia 31707",Located in Dougherty County,georgia
Sims Pest Control Company,www.simspestcontrol.com,1-229-436-3215,"Albany, Georgia 31707",Located in Dougherty County,georgia
Skyline Pest Solutions Inc,www.skylinepest.com,1-678-432-5464,"McDonough, Georgia 30253",Located in Henry County,georgia
Southeastern Fumigants Inc,masseywholesale.com,1-229-995-5894,"Dawson, Georgia 39842",Located in Terrell County,georgia
System Accessories,www.systemacc.com,1-770-917-1199,"Acworth, Georgia 30101",Located in Cobb County,georgia
Tuxedo Mosquito Control,tuxedomosquitocontrol.com,1-770-509-0396,"Marietta, Georgia 30067",Located in Cobb County,georgia
Ultimate Pest Control,www.ultimatepestcontrol.com,1-912-786-6426,"Tybee Island, Georgia 31328",Located in Chatham County,georgia
Aloha Termite Kauia,www.servicewithaloha.com,1-808-245-3100,"Lihue, Hawaii 96766",Located in Kauai County,hawaii
Bug Man Termite & Pest Inc,www.bugmanhawaii.com,1-808-871-1283,"Kihei, Hawaii 96753",Located in Maui County,hawaii
Commercial Roofing Inc,www.commercialroofinginc.com,1-808-841-7246,"Honolulu, Hawaii 96819",Located in Honolulu County,hawaii
Fleabusters of Hawaii,www.fleabustersofhawaii.com,1-808-575-9555,"Paia, Hawaii 96779",Located in Maui County,hawaii
Hawaii Grower Products,www.hawaiigrowerproducts.com,1-808-877-6636,"Kahului, Hawaii 96732",Located in Maui County,hawaii
Kilauea Pest Control,kilaueapest.com,1-808-236-2847,"Kailua, Hawaii 96734",Located in Honolulu County,hawaii
Sandwich Isle Pest Solutions,www.sandwichisle.com,1-808-456-7716,"Pearl City, Hawaii 96782",Located in Honolulu County,hawaii
Structural Pest Control,structuralpest.com,1-808-483-4444,"Honolulu, Hawaii 96822",Located in Honolulu County,hawaii
Will Kill Termites & Pests,willkillpests.com,1-808-968-9554,"Hilo, Hawaii 96720",Located in Hawaii County,hawaii
Ampro Pest Control Service,golawntech.com,1-208-233-5296,"Idaho Falls, Idaho 83401",Located in Bonneville County,idaho
Best Pest Control,www.bestpestboise.com/,1-208-362-5802,"Boise, Idaho 83709",Located in Ada County,idaho
Dengo Wildlife Control,www.dengowildlifecontrol.com,1-208-869-9055,"Boise, Idaho 83705",Located in Ada County,idaho
Get Lost Pest Control,www.getlostpest.com,1-208-949-1003,"Middleton, Idaho 83644",Located in Canyon County,idaho
Impact Pest Service,www.impactpestservices.com,1-208-939-5296,"Boise, Idaho 83713",Located in Ada County,idaho
Intermountain Pest Management,www.intermountainpestmanagement.com,1-208-888-7977,"Meridian, Idaho 83642",Located in Ada County,idaho
Pest Control Services,pestcontrolidaho.com,1-208-529-2972,"Idaho Falls, Idaho 83402",Located in Bonneville County,idaho
Pestcom Pest Management,pestcom.com,1-208-287-3702,"Meridian, Idaho 83642",Located in Ada County,idaho
Pointe Pest Control,pointepest.com/locations/coeur-dalene/,1-208-262-4122,"Coeur D Alene, Idaho 83815",Located in Kootenai County,idaho
ProGuard Pest Control,proguardpest.com/,1-208-352-2062,"Eagle, Idaho 83616",Located in Ada County,idaho
Treasure Valley Pest Control,www.treasurevalleypestcontrol.com,1-208-336-1886,"Kuna, Idaho 83634",Located in Ada County,idaho
Ultra-Lawn,www.ultralawn.net,1-208-777-1696,"Post Falls, Idaho 83877",Located in Kootenai County,idaho
Vanguard Pest Control,www.vanguardpestcontrol.com,1-208-288-5609,"Meridian, Idaho 83642",Located in Ada County,idaho
Wood River Pest Management,www.woodriverpestmanagement.com,1-208-788-7378,"Bellevue, Idaho 83313",Located in Blaine County,idaho
A Complete Pest Solution,www.acompletepestsolution.com,1-630-464-1542,"Glendale Heights, Illinois 60139",Located in DuPage County,illinois
A-Action Pest Control,www.a-actionpestcontrol.com,1-847-838-5680,"Antioch, Illinois 60002",Located in Lake County,illinois
A-Alert Exterminating Service Inc,www.dontgivepestsachance.com/,1-773-348-3337,"Chicago, Illinois 60659",Located in Cook County,illinois
A-Plus Pest Control Inc,apluspest.com,1-866-838-1549,"Skokie, Illinois 60076",Located in Cook County,illinois
"A.G.A.D. Pest Control, Inc",www.agadpest.com,1-630-834-2423,"Villa Park, Illinois 60181",Located in DuPage County,illinois
A.W.E.S.O.M.E. Pest Services,www.awesomepestservices.com,1-708-484-6126,"Berwyn, Illinois 60402",Located in Cook County,illinois
Advanced Maintenance Solutions,www.pestcontrolexpertschicago.com,1-773-789-9789,"Chicago, Illinois 60618",Located in Cook County,illinois
Advantage Pest Control Solutions,www.STLpest.com,1-618-310-1284,"Belleville, Illinois 62226",Located in St Clair County,illinois
Allied Termite & Pest Control,www.alliedtermitepestcontrol.com,1-309-342-6013,"Galesburg, Illinois 61401",Located in Knox County,illinois
Anew Trufax Pest Control,www.anewtrufax.com,1-618-592-4701,"Oblong, Illinois 62449",Located in Crawford County,illinois
Animal Trackers Wildlife Company,www.animaltrackerswildlife.com,1-847-884-1057,"Hoffman Estates, Illinois 60169",Located in Cook County,illinois
Arab Termite & Pest Control,arabpestcontrol.com,1-618-932-6727,"West Frankfort, Illinois 62896",Located in Franklin County,illinois
B L Downey CO Inc,www.bldowney.com,1-708-345-8000,"Broadview, Illinois 60155",Located in Cook County,illinois
Bradley Pest Control,bradleypc.com,1-815-405-5020,"Essex, Illinois 60935",Located in Kankakee County,illinois
Bug Stop,www.bugstop.net,1-312-226-0824,"Chicago, Illinois 60608",Located in Cook County,illinois
Central Illinois Pest MGMT Inc,www.centralillinoispest.com,1-309-267-7378,"Yates City, Illinois 61572",Located in Knox County,illinois
Code Pest Control,www.dontgivepestsachance.com,1-847-674-4718,"Chicago, Illinois 60659",Located in Cook County,illinois
County Wildlife Control Inc,getanimalcontrol.com,1-847-949-5655,"Mundelein, Illinois 60060",Located in Lake County,illinois
Crist Termite & Pest Control,www.cristtermite.com,1-217-543-2890,"Arthur, Illinois 61911",Located in Douglas County,illinois
Dads Against Mosquitoes,dadsagainstmosquitoes.com,1-630-359-9000,"Elmhurst, Illinois 60126",Located in DuPage County,illinois
"Double G Pest Control, Inc.",www.doublegpestcontrol.com,1-217-440-2847,"Quincy, Illinois 62305",Located in Adams County,illinois
Emerick Pest Control Inc,www.emerickpest.com,1-888-240-3521,"Geneseo, Illinois 61254",Located in Henry County,illinois
Emerick Pest Control Inc,emerickpest.com,1-309-944-8361,"Geneseo, Illinois 61254",Located in Henry County,illinois
Envirosafe Inc,www.pestmgmt.com,1-630-773-1280,"Itasca, Illinois 60143",Located in DuPage County,illinois
Four Seasons Pest Control Inc,nocreepycrawlies.com,1-309-342-9644,"Galesburg, Illinois 61401",Located in Knox County,illinois
Frantz & CO INC,frantzpestcontrol.com,1-309-347-1459,"Pekin, Illinois 61554",Located in Tazewell County,illinois
General Pest Elimination,generalpest.com,1-630-369-0230,"Naperville, Illinois 60563",Located in DuPage County,illinois
Heartland Pest Control,www.heartlandpestctrl.com,1-618-678-2353,"Xenia, Illinois 62899",Located in Clay County,illinois
Illinois Wildlife Control,www.illinoiswildlifecontrol.com,1-815-337-2719,"Woodstock, Illinois 60098",Located in McHenry County,illinois
Markley Curt,www.markleyspest.com/,1-309-263-0341,"Morton, Illinois 61550",Located in Tazewell County,illinois
Metro-East Wildlife Control,www.metroeastwildlife.com,1-618-488-7409,"Alhambra, Illinois 62001",Located in Madison County,illinois
Midwest Exterminating,midwestext.com,1-630-968-0200,"Lockport, Illinois 60441",Located in Will County,illinois
Mosquito Squad of Belleville,belleville.mosquitosquad.com,1-618-409-6465,"Millstadt, Illinois 62260",Located in St Clair County,illinois
Mug-A-Bug,www.mugabugmosquito.com,1-217-875-3303,"Forsyth, Illinois 62535",Located in Macon County,illinois
My Honey Company,www.myhoneyco.com,1-815-678-4129,"Richmond, Illinois 60071",Located in McHenry County,illinois
Nevernest Extermination,www.nevernest.com,1-847-973-9560,"Fox Lake, Illinois 60020",Located in Lake County,illinois
Nevernest Extermination,www.nevernest.com,1-773-772-9172,"Chicago, Illinois 60647",Located in Cook County,illinois
Nevernest Pest Control,nevernest.com/#cid=spps,1-773-772-9172,"Chicago, Illinois 60647",Located in Cook County,illinois
Peoria Pest Control,peoriapestcontroler.com,1-309-777-0737,"Peoria, Illinois 61603",Located in Peoria County,illinois
Pestmasters Extg Co Inc,a1pestmasters.com,1-773-737-6939,"Chicago, Illinois 60636",Located in Cook County,illinois
Quik Kill Pest Eliminators Inc,www.quikkill.com,1-815-672-0505,"Streator, Illinois 61364",Located in La Salle County,illinois
Resolve Pest Solutions,www.resolvepestsolutions.com,1-773-756-1404,"Chicago, Illinois 60647",Located in Cook County,illinois
Riteway Pest Control,www.ritewaypestcontrol.com,1-630-595-1105,"Bensenville, Illinois 60106",Located in DuPage County,illinois
S & B Finishing CO Inc,www.finishing.com/sandb,1-773-533-0033,"Chicago, Illinois 60612",Located in Cook County,illinois
Shepp Pest Control,www.shepppestcontrol.com,1-847-398-0777,"Park Ridge, Illinois 60068",Located in Cook County,illinois
South Cook County Mosquito,sccmad.com,1-708-333-4120,"Harvey, Illinois 60426",Located in Cook County,illinois
Southwest Pest Control Service Co,www.southwestpestcontrolil.com,1-815-485-3750,"New Lenox, Illinois 60451",Located in Will County,illinois
Tabor Pest Service,www.taborpestservices.com/,1-618-997-8780,"Marion, Illinois 62959",Located in Williamson County,illinois
TurfGator LLC,turfgator.com,1-618-233-7600,"Lebanon, Illinois 62254",Located in St Clair County,illinois
Us Pest Control,www.uspestcontrolco.com,1-708-430-7335,"Palos Hills, Illinois 60465",Located in Cook County,illinois
Washington Termite and Pest Control,www.washingtontermite.com/,1-309-444-9847,"Washington, Illinois 61571",Located in Tazewell County,illinois
Wildlife and Waterfowl Solutions LLC,wildlifewaterfowlsolutions.com/,1-847-626-5862,"Mchenry, Illinois 60050",Located in McHenry County,illinois
ACCA Company,www.accabasements.com,1-812-479-8905,"Evansville, Indiana 47715",Located in Vanderburgh County,indiana
Advance Termite & Pest MGMT,www.advance-termite.com,1-317-280-0688,"Indianapolis, Indiana 46224",Located in Marion County,indiana
Advanced Pest Management,www.apmpest.com,1-317-392-8830,"Shelbyville, Indiana 46176",Located in Shelby County,indiana
Boggs Pest Control - Southern Indiana,www.boggspestcontrol.com,1-812-282-1920,"Jeffersonville, Indiana 47130",Located in Clark County,indiana
Burt's Termite & Pest Control,www.burtspestcontrol.com,1-812-372-3212,"Columbus, Indiana 47201",Located in Bartholomew County,indiana
Certified Home Inspection LLC,www.getmyhomeinspection.com,1-765-965-7793,"Richmond, Indiana 47374",Located in Wayne County,indiana
Fowler Pest Control,www.fowlerpest.com,1-765-884-1881,"Fowler, Indiana 47944",Located in Benton County,indiana
Franklin Pest Control,www.franklinpestcontrol.com,1-219-874-7900,"Michigan City, Indiana 46360",Located in LaPorte County,indiana
Franklin Pest Control,www.franklinpest.com,1-219-932-9100,"Hammond, Indiana 46320",Located in Lake County,indiana
Franklin Pest Solutions,www.franklinpestsolutions.com,1-219-945-1101,"Michigan City, Indiana 46360",Located in LaPorte County,indiana
Fumigation Service & Supply Inc - Commercial Service Only,www.insectslimited.com,1-317-896-9300,"Westfield, Indiana 46074",Located in Hamilton County,indiana
Pestanators,www.pestanators.com,1-812-477-2060,"Evansville, Indiana 47714",Located in Vanderburgh County,indiana
"Ponds, Pools & Fountains Corporation-Ppfc",www.ppfc.com,1-800-651-0002,"Indianapolis, Indiana 46229",Located in Marion County,indiana
Pow Termite & Pest Control,powpest.net,1-812-696-2100,"Farmersburg, Indiana 47850",Located in Sullivan County,indiana
Swat Pest Management,www.swatpest.com,1-812-476-9708,"Evansville, Indiana 47715",Located in Vanderburgh County,indiana
Dowie Pest Control,www.dowiepestcontrol.com,1-641-628-9981,"Pella, Iowa 50219",Located in Marion County,iowa
Fine Service Termite & Pest,www.fineservices.us,1-712-542-1138,"Clarinda, Iowa 51632",Located in Page County,iowa
Fine Services,www.fineservices.us,1-712-246-2036,"Shenandoah, Iowa 51601",Located in Page County,iowa
Kness Manufacturing Company,www.kness.com,1-641-932-7846,"Albia, Iowa 52531",Located in Monroe County,iowa
Miller Pest & Termite,www.millerthekiller.com,1-515-518-8864,"Des Moines, Iowa 50315",Located in Polk County,iowa
Presto-X Pest Control,www.prestox.com/your-local-office/iowa/davenport/index.html,1-563-391-2205,"Cedar Rapids, Iowa 52404",Located in Linn County,iowa
Schendel Pest Control Inc,www.schendelpestcontrol.com,1-641-752-0986,"Marshalltown, Iowa 50158",Located in Marshall County,iowa
Snare Shop,snareshop.com,1-712-792-0600,"Carroll, Iowa 51401",Located in Carroll County,iowa
Struyk Turf Limited,www.struykturf.com,1-712-322-0102,"Council Bluffs, Iowa 51503",Located in Pottawattamie County,iowa
Absolute Pest Control,www.kswildlifecontrol.com/,1-913-367-2847,"Atchison, Kansas 66002",Located in Atchison County,kansas
Airosol CO Inc,airosol.com,1-620-325-2666,"Neodesha, Kansas 66757",Located in Wilson County,kansas
Alternative Pest Management,alternativepestmgmt.com,1-316-838-8844,"Derby, Kansas 67037",Located in Sedgwick County,kansas
"Arrest A Pest by PMP, Inc",www.arrestapest4u.com/,1-316-945-8400,"Wichita, Kansas 67209",Located in Sedgwick County,kansas
Arrow Cold Control,www.arrowcoldcontrol.com,1-913-371-4677,"Kansas City, Kansas 66102",Located in Wyandotte County,kansas
Betts Pest Control,www.bettspc.com,1-316-943-3555,"Wichita, Kansas 67203",Located in Sedgwick County,kansas
Brochamwood Tree Care,www.brochamwood.com,1-620-367-8205,"Canton, Kansas 67428",Located in McPherson County,kansas
G P Traps,www.gptraps.com,1-620-394-2341,"Atlanta, Kansas 67008",Located in Cowley County,kansas
Hassman Termite & Pest Control,www.hassmantermite.com/,1-785-827-6750,"Salina, Kansas 67401",Located in Saline County,kansas
Hassman Termite & Pest Control,hassmantermite.com,1-620-241-5260,"Mcpherson, Kansas 67460",Located in McPherson County,kansas
Leavenworth Pest Control,www.leavenworthpc.com,1-913-775-2847,"Leavenworth, Kansas 66048",Located in Leavenworth County,kansas
Martin City Termite & Bed Bug Control,mctermitebedbug.com/,1-913-203-1561,"Overland Park, Kansas 66221",Located in Johnson County,kansas
Signature Pest Control,www.signaturepest.com,1-316-265-4800,"Wichita, Kansas 67213",Located in Sedgwick County,kansas
Spencer Pest Control Inc,www.spencerpestcontrol.com,1-620-872-2870,"Scott City, Kansas 67871",Located in Scott County,kansas
Sunflower Pest Solutions Inc,www.sunflowerpest.com,1-913-244-3682,"Olathe, Kansas 66062",Located in Johnson County,kansas
Tendercare Pest Control Inc,www.tendercarelandscape.com,1-316-789-0370,"Derby, Kansas 67037",Located in Sedgwick County,kansas
Tox-Eol Pest Management Inc,www.toxeol.com,1-785-825-5143,"Salina, Kansas 67401",Located in Saline County,kansas
Dial One Real-Estate Pest,dialonerepc.com,1-502-896-1319,"Louisville, Kentucky 40218",Located in Jefferson County,kentucky
Etown Exterminating,www.muggabug.com,1-270-737-6900,"Elizabethtown, Kentucky 42701",Located in Hardin County,kentucky
Guarantee Pest Control Company,www.guaranteepestcontrol.com,1-270-842-4289,"Bowling Green, Kentucky 42101",Located in Warren County,kentucky
Integrated Pest Management Service,ipmpestcontrol.com,1-502-456-4416,"Louisville, Kentucky 40218",Located in Jefferson County,kentucky
Leitchfield Exterminating,www.leitchfieldext.com,1-270-259-6285,"Leitchfield, Kentucky 42754",Located in Grayson County,kentucky
McGee Pest Control Inc,www.mcgeepestcontrol.com,1-270-885-5623,"Hopkinsville, Kentucky 42240",Located in Christian County,kentucky
Mid-South Lumber Supply,www.midsouthlumber.com,1-270-843-0194,"Bowling Green, Kentucky 42101",Located in Warren County,kentucky
Nick's Pest Management Inc,nickspest.com,1-270-754-1921,"Madisonville, Kentucky 42431",Located in Hopkins County,kentucky
Premier Termite & Pest Control,www.premierpests.com,1-859-744-9500,"Richmond, Kentucky 40475",Located in Madison County,kentucky
Real Estate Pest Control Inc,dialonerepc.com,1-502-459-7372,"Louisville, Kentucky 40218",Located in Jefferson County,kentucky
Ace Services of NW LA,www.ace-exterminating.com,1-318-752-9422,"Bossier City, Louisiana 71112",Located in Bossier Parish,louisiana
Anti-Pest,www.anti-pest.com,1-318-221-6181,"Shreveport, Louisiana 71101",Located in Caddo Parish,louisiana
Arceneaux Pest Management Service,www.arceneauxpest.com,1-225-791-9911,"Denham Springs, Louisiana 70726",Located in Livingston Parish,louisiana
Arrow Termite & Pest Control,www.arrowtermiteandpestcontrol.com/,1-985-661-9066,"Slidell, Louisiana 70458",Located in St Tammany Parish,louisiana
Bayou Cajun Termite & Pest,www.bayoucajunpest.com/,1-225-654-0482,"Zachary, Louisiana 70791",Located in East Baton Rouge Parish,louisiana
Belly Up Bugs,www.belly-up-bugs.com,1-318-371-7897,"Minden, Louisiana 71055",Located in Webster Parish,louisiana
Bengal Chemical Inc,bengal.com,1-225-753-1313,"Baton Rouge, Louisiana 70817",Located in East Baton Rouge Parish,louisiana
Billiot Pest Control,www.billiotpest.com,1-985-893-5083,"Covington, Louisiana 70433",Located in St Tammany Parish,louisiana
Billiot Pest Control,www.billiotpest.com,1-504-365-0075,"Harvey, Louisiana 70058",Located in Jefferson Parish,louisiana
Blue Star Pest Control,www.bluestarbugs.com,1-985-641-3797,"Slidell, Louisiana 70458",Located in St Tammany Parish,louisiana
Bug Man Inc,www.bugmanonline.com,1-225-923-2847,"Baton Rouge, Louisiana 70806",Located in East Baton Rouge Parish,louisiana
Bug Stomper Company,www.thebugstomper.com,1-318-539-5608,"Springhill, Louisiana 71075",Located in Webster Parish,louisiana
D A Exterminating CO Inc,www.daexterminating.com,1-985-893-2071,"Covington, Louisiana 70433",Located in St Tammany Parish,louisiana
D A Exterminating Company,www.daexterminating.com,1-985-872-0368,"Houma, Louisiana 70360",Located in Terrebonne Parish,louisiana
David Carter Exterminating Company,www.dcarterexterminating.com,1-504-468-1823,"Kenner, Louisiana 70065",Located in Jefferson Parish,louisiana
Dugas Pest Contrl,www.dugaspestcontrol.com,1-225-291-3511,"Baton Rouge, Louisiana 70816",Located in East Baton Rouge Parish,louisiana
Green Grass Chemical Lawn Care,www.greengrasslawncareinc.com,1-985-863-6200,"Pearl River, Louisiana 70452",Located in St Tammany Parish,louisiana
Gulfcoast Mosquito Control,gulfcoastmosquito.com,1-504-899-1950,"Mandeville, Louisiana 70470",Located in St Tammany Parish,louisiana
Inspector 12 Service LLC,inspect-12.com,1-504-342-4909,"New Orleans, Louisiana 70131",Located in Orleans Parish,louisiana
Ja-Roy Pest Control,www.ja-roy.com,1-985-839-6833,"Franklinton, Louisiana 70438",Located in Washington Parish,louisiana
Ja-Roy Pest Control-Covington,ja-roy.com,1-985-892-6882,"Covington, Louisiana 70435",Located in St Tammany Parish,louisiana
Laughing Buddha Nursery,www.laughingbuddhanursery.com,1-504-887-4336,"Metairie, Louisiana 70006",Located in Jefferson Parish,louisiana
Lightning Elimination SYST Inc,nolightning.com,1-985-869-0999,"Covington, Louisiana 70435",Located in St Tammany Parish,louisiana
MC Ginnis Pest Control,mcginnispestcontrol.com,1-337-433-8433,"Lake Charles, Louisiana 70601",Located in Calcasieu Parish,louisiana
Morrco Pet & Pest Supply,www.morrco.com,1-318-697-2024,"Mansfield, Louisiana 71052",Located in DeSoto Parish,louisiana
Mosquito Mist Systems,mosquitomistsystems.com,1-318-349-1527,"Shreveport, Louisiana 71115",Located in Caddo Parish,louisiana
Mosquito Squad of Louisiana Bayou Region,louisiana-bayou.mosquitosquad.com,1-985-872-0301,"Houma, Louisiana 70360",Located in Terrebonne Parish,louisiana
Mosquito Squad of South Central Louisiana,south-central-louisiana.mosquitosquad.com,1-337-585-3800,"Washington, Louisiana 70589",Located in St Landry Parish,louisiana
Natural Solutions Pest Control,www.naturalsolutionspestcontrol.net,1-337-984-5920,"Lafayette, Louisiana 70506",Located in Lafayette Parish,louisiana
Pestop,www.pestop.com,1-225-273-4788,"Baton Rouge, Louisiana 70816",Located in East Baton Rouge Parish,louisiana
Pestop,pestop.com,1-504-889-7071,"Metairie, Louisiana 70002",Located in Jefferson Parish,louisiana
Robert G Taylor,www.honeybeeremoval.com,1-985-969-4647,"Ponchatoula, Louisiana 70454",Located in Tangipahoa Parish,louisiana
Signature Termite & Pest Cntrl,www.signatureproservices.net,1-985-789-0258,"Abita Springs, Louisiana 70420",Located in St Tammany Parish,louisiana
Sugarland Exterminating,sugarlandexterminating.com/,1-337-367-1414,"New Iberia, Louisiana 70560",Located in Iberia Parish,louisiana
Terminix International Company,www.terminix-houma.com,1-985-693-3152,"Houma, Louisiana 70360",Located in Terrebonne Parish,louisiana
Vexcon Inc,www.vexconinc.com,1-318-965-5357,"Benton, Louisiana 71006",Located in Bossier Parish,louisiana
Ants Etc. Pest Service,antsetcpestservice.com,1-207-892-7855,"Portland, Maine 04103",Located in Cumberland County,maine
Modern Pest Services,www.modernpest.com/me,1-888-472-8495,"Hermon, Maine 04401",Located in Penobscot County,maine
"Angel Systems, Inc.",www.angelsystems.com,1-301-994-2829,"Great Mills, Maryland 20634",Located in Saint Mary's County,maryland
Annapolis Pest Control Inc,www.annapolispest.com,1-410-730-2822,"Severna Park, Maryland 21146",Located in Anne Arundel County,maryland
APC,annapolispest.com,1-410-987-1572,"Severna Park, Maryland 21146",Located in Anne Arundel County,maryland
Atlantic Pest Control,www.atlantic-pest-control.com,1-410-889-2525,"Baltimore, Maryland 21211",Located in Baltimore City County,maryland
Bay City Pest Management Inc,www.baycitypest.com/,1-410-344-1380,"Baltimore, Maryland 21215",Located in Baltimore City County,maryland
BugOut Termite & Pest Control Inc.,www.bugoutinc.com,1-410-760-6065,"Glen Burnie, Maryland 21061",Located in Anne Arundel County,maryland
Fidelity Exterminating SPCS,www.fidelityx.com,1-410-272-2847,"Aberdeen, Maryland 21001",Located in Harford County,maryland
Frisky's Wildlife Sanctuary Inc,www.friskys.org,1-410-418-8899,"Woodstock, Maryland 21163",Located in Howard County,maryland
Green Pest Services,greenpestservices.net/locations/bethesda-md-pest-control,1-703-961-8601,"Rockville, Maryland 20853",Located in Montgomery County,maryland
Mosquito Squad of Annapolis,annapolis.mosquitosquad.com,1-410-317-8385,"Havre De Grace, Maryland 21078",Located in Harford County,maryland
Mosquito Squad of Northern Maryland,northern-maryland.mosquitosquad.com/,1-443-655-7280,"Nottingham, Maryland 21236",Located in Baltimore County,maryland
Mosquito Squad of West Montgomery,westmontgomery.mosquitosquad.com,1-301-444-5566,"Frederick, Maryland 21703",Located in Frederick County,maryland
Q Pest Control,www.qpestcontrol.com,1-410-372-0240,"Baltimore, Maryland 21203",Located in Baltimore City County,maryland
Trap Professional,www.trappro.com/,1-410-728-8727,"Baltimore, Maryland 21229",Located in Baltimore City County,maryland
A-1 Exterminators,www.a1exterminators.com/,1-617-965-7856,"Newton, Massachusetts 02458",Located in Middlesex County,massachusetts
Aaa Pest Control Inc,aaapestinc.com,1-508-339-9504,"Mansfield, Massachusetts 02048",Located in Bristol County,massachusetts
Advanta Pro Pest Control LLC,www.advantapropestcontrol.com/,1-978-987-9819,"Billerica, Massachusetts 01821",Located in Middlesex County,massachusetts
American Pest Solutions,www.413pestfree.com,1-800-546-7328,"Springfield, Massachusetts 01105",Located in Hampden County,massachusetts
APC Pest & Termite Control Inc,www.apcpest.com,1-978-443-5200,"Medfield, Massachusetts 02052",Located in Norfolk County,massachusetts
Atlantic Exterminating Inc.,www.atlanticexterminatinginc.com,1-781-395-2373,"Medford, Massachusetts 02155",Located in Middlesex County,massachusetts
Bay State Pest Control,www.baystatepest.com,1-978-887-6886,"Wakefield, Massachusetts 01880",Located in Middlesex County,massachusetts
Best Pest Control Service,bestpest.com,1-617-776-3140,"Somerville, Massachusetts 02144",Located in Middlesex County,massachusetts
Best Pest Control Services,www.bestpest.com,1-781-641-4040,"Somerville, Massachusetts 02474",Located in Middlesex County,massachusetts
BirdMaster,www.birdmaster.com,1-978-528-5706,"Billerica, Massachusetts 01821",Located in Middlesex County,massachusetts
Brockton Exterminating Co.,www.conleyspestcontrol.net,1-781-963-1203,"Duxbury, Massachusetts 02332",Located in Plymouth County,massachusetts
C & B Pest Control,candbpestcontrol.com,1-508-285-5111,"Norton, Massachusetts 02766",Located in Bristol County,massachusetts
Colonial Pest Control - Haverhill,www.colonialpest.com,1-978-372-6116,"Worcester, Massachusetts 01604",Located in Worcester County,massachusetts
Dave's Pest Control,www.davespestcontrol.net,1-508-347-2687,"Sturbridge, Massachusetts 01566",Located in Worcester County,massachusetts
Diversified Exterminating Company,teamges.net,1-781-321-9159,"Malden, Massachusetts 02148",Located in Middlesex County,massachusetts
Downes Pest Solutions,www.downespest.com,1-866-367-2687,"Boston, Massachusetts 02109",Located in Suffolk County,massachusetts
DURA Tech Pest Control,www.duratechpestcontrol.com,1-978-465-6211,"Amesbury, Massachusetts 01913",Located in Essex County,massachusetts
E CO Systems Pest Control,www.ecopestcontrol.com,1-781-826-4973,"Hanover, Massachusetts 02339",Located in Plymouth County,massachusetts
Empire Pest Control,www.empirepest.com,1-508-481-9993,"Marlborough, Massachusetts 01752",Located in Middlesex County,massachusetts
"Environmental Health Services, Inc.",www.ehspest.com,1-781-769-1115,"Norwood, Massachusetts 02062",Located in Norfolk County,massachusetts
F & W Pest Control - Wrentham,www.fwpest.com,1-508-384-6400,"Wrentham, Massachusetts 02093",Located in Norfolk County,massachusetts
Flynn Pest Control,www.flynnpestcontrol.com,1-508-252-4836,"Rehoboth, Massachusetts 02769",Located in Bristol County,massachusetts
Framingham-Walpole Pest Cntrl,fwpest.com,1-508-872-3256,"Framingham, Massachusetts 01701",Located in Middlesex County,massachusetts
Gary's Wildlife Service,www.garyswildlife.com,1-508-946-0060,"Middleboro, Massachusetts 02346",Located in Plymouth County,massachusetts
Golden Paws Pet Grooming,www.goldenpawspet.com,1-781-274-9144,"Lexington, Massachusetts 02420",Located in Middlesex County,massachusetts
HMO Green,cedarlawn.com,1-508-881-2622,"Ashland, Massachusetts 01721",Located in Middlesex County,massachusetts
Neal Pest Control Inc,www.nealpestcontrol.com/,1-800-526-9101,"Plymouth, Massachusetts 02362",Located in Plymouth County,massachusetts
New Eng Exterminating Company,www.bainpestcontrol.com,1-978-452-9621,"Lowell, Massachusetts 01851",Located in Middlesex County,massachusetts
Rest in Peace Pest Control Inc,www.restinpeacepestcontrol.com,1-413-525-4227,"East Longmeadow, Massachusetts 01028",Located in Hampden County,massachusetts
Supplies Exch Systems,suppliesexchangesystems.com,1-617-265-6300,"Dorchester, Massachusetts 02121",Located in Suffolk County,massachusetts
Timber Care,a1exterminators.com,1-508-291-1217,"West Harwich, Massachusetts 02671",Located in Barnstable County,massachusetts
"Ultrafast Pest Control, Inc.",www.ultrafastpest.com,1-781-894-7700,"Waltham, Massachusetts 02451",Located in Middlesex County,massachusetts
Vineyard Pest Control,a1exterminators.com,1-508-693-5866,"West Harwich, Massachusetts 02671",Located in Barnstable County,massachusetts
Waltham Pest Control,www.walthampestcontrol.com,1-781-272-1217,"Burlington, Massachusetts 01803",Located in Middlesex County,massachusetts
Weaver Pest Control,mdweaver.com,1-508-315-3073,"Natick, Massachusetts 01760",Located in Middlesex County,massachusetts
Wildlife Control,www.wildlifecontrolma.com,1-508-892-1967,"Rochdale, Massachusetts 01542",Located in Worcester County,massachusetts
A-1 Pest Control Services,www.a-1pestcontrolservices.com/,1-616-776-0103,"Marne, Michigan 49435",Located in Ottawa County,michigan
Action Termite & Pest Control,www.actionwdi.com,1-231-723-6888,"Manistee, Michigan 49660",Located in Manistee County,michigan
Advanced Exterminator Company,www.advancedexterminator.com,1-586-598-0183,"Macomb, Michigan 48042",Located in Macomb County,michigan
All American Pest Control,www.allampest.com,1-989-466-2673,"Alma, Michigan 48801",Located in Gratiot County,michigan
Animal Professional,animalproinc.com,1-248-676-8800,"Milford, Michigan 48381",Located in Oakland County,michigan
Bay-Pointe Pest & Termite Management,www.baypointepest.com,1-989-269-9618,"Bad Axe, Michigan 48413",Located in Huron County,michigan
Bug Man,www.lansingbugman.com,1-517-676-6669,"Mason, Michigan 48854",Located in Ingham County,michigan
Commercial Pest Control Service,www.kellerpestcontrol.com,1-269-329-2698,"Portage, Michigan 49002",Located in Kalamazoo County,michigan
Great Lakes IPM,www.greatlakesipm.com,1-989-268-5693,"Vestaburg, Michigan 48891",Located in Montcalm County,michigan
Great Lakes Pest Control Company,www.greatlakespestcontrolco.com,1-248-548-3030,"Berkley, Michigan 48072",Located in Oakland County,michigan
Insectech,www.insectechpestcontrol.com,1-734-487-7024,"Ypsilanti, Michigan 48198",Located in Washtenaw County,michigan
Maple Lane Pest Control - Corporate Office,www.maplelanepestcontrol.com,1-586-781-7010,"Warren, Michigan 48092",Located in Macomb County,michigan
Maplelane Pest Control,www.maplelanepestcontrol.com,1-586-939-6810,"Warren, Michigan 48092",Located in Macomb County,michigan
Mite-E Exterminating,www.mite-e.com,1-269-343-6887,"Kalamazoo, Michigan 49004",Located in Kalamazoo County,michigan
Professional Pest Management,www.professionalpest.net,1-616-534-4383,"Grandville, Michigan 49418",Located in Kent County,michigan
Rose Pest Solutions,www.rosepestsolutions.com/,1-800-564-0510,"Kalamazoo, Michigan 49048",Located in Kalamazoo County,michigan
Sergio's Pest Control,www.sergiospestcontrol.com,1-248-932-0018,"West Bloomfield, Michigan 48322",Located in Oakland County,michigan
Spider Control Inc,www.spidercontrolinc.com,1-586-783-1577,"Mount Clemens, Michigan 48043",Located in Macomb County,michigan
Terminix International Company,www.terminixwestmich.com,1-616-957-1212,"Grand Rapids, Michigan 49512",Located in Kent County,michigan
Tri-County Pest Control,www.tricountyusa.com,1-586-441-2574,"Saint Clair Shores, Michigan 48082",Located in Macomb County,michigan
Tuff Turf Mole Busters,www.tuffturfmolebusters.com,1-616-554-9499,"Byron Center, Michigan 49315",Located in Kent County,michigan
Wildlife Management & Nuisance,www.skunkwhisperer.com,1-231-347-2540,"Petoskey, Michigan 49770",Located in Emmet County,michigan
AG Partners Cooperative,www.agpartners.net,1-651-923-4496,"Goodhue, Minnesota 55027",Located in Goodhue County,minnesota
Agro-K Corporation,www.agro-k.com,1-763-780-4116,"Minneapolis, Minnesota 55432",Located in Anoka County,minnesota
Bill's Wildlife Control,billswildlifecontrol.com,1-612-240-2429,"Saint Paul, Minnesota 55124",Located in Dakota County,minnesota
London Fog Inc,londonfoggers.com,1-952-473-5366,"Long Lake, Minnesota 55356",Located in Hennepin County,minnesota
Mc Laughlin Gormley King,www.mgk.com,1-763-544-0341,"Minneapolis, Minnesota 55427",Located in Hennepin County,minnesota
Minnesota Trapline Products,minntrapprod.com,1-320-599-4176,"Pennock, Minnesota 56279",Located in Kandiyohi County,minnesota
Nuisance Wildlife Control,www.mn-wildlifecontrol.com,1-763-227-9888,"Big Lake, Minnesota 55309",Located in Sherburne County,minnesota
Prinsburg Farmers Cooperative,www.prccoop.com,1-320-978-8100,"Prinsburg, Minnesota 56281",Located in Kandiyohi County,minnesota
Rainbow Pest Experts,www.rainbowpestexperts.com,1-952-252-0585,"Minneapolis, Minnesota 55420",Located in Hennepin County,minnesota
Rove Pest Control,www.rovepestcontrol.com,1-651-735-3101,"Saint Paul, Minnesota 55125",Located in Washington County,minnesota
TEMP-AIR,www.temp-air.com,1-952-707-5050,"Burnsville, Minnesota 55337",Located in Dakota County,minnesota
Tessman Seed Inc,www.tessmanseed.com,1-651-487-3850,"Saint Paul, Minnesota 55117",Located in Ramsey County,minnesota
Action Pest Control Company,actionpestonline.com,1-662-895-4200,"Olive Branch, Mississippi 38654",Located in Desoto County,mississippi
Diversified Pest Management,www.diversifiedpest.com,1-601-981-1137,"Raymond, Mississippi 39154",Located in Hinds County,mississippi
Drewery Termite & Pest Control,www.drewerystermiteandpestcontrol.com,1-662-234-4727,"Oxford, Mississippi 38655",Located in Lafayette County,mississippi
Henderson Pest Control Inc,www.hendersonpest.com,1-662-489-2132,"Blue Mountain, Mississippi 38610",Located in Tippah County,mississippi
"Henderson Pest Control Inc - Blue Mtn, Pontotoc, TUP",www.hendersonpest.com,1-662-842-8491,"Blue Mountain, Mississippi 38610",Located in Tippah County,mississippi
Reply Insurance Agency,www.ripleyins.com,1-662-837-8874,"Ripley, Mississippi 38663",Located in Tippah County,mississippi
Vector Disease Control Inc,www.vdci.net,1-662-332-7557,"Greenville, Mississippi 38701",Located in Washington County,mississippi
A-1 Pest Control,www.a-1pestcontrol.com,1-417-883-4611,"Springfield, Missouri 65807",Located in Greene County,missouri
Agri-Gro Marketing Inc,www.agrigro.com,1-573-996-7384,"Doniphan, Missouri 63935",Located in Ripley County,missouri
ALL Seasons ALL Pests,pestcontrolasap.com,1-314-918-5909,"Arnold, Missouri 63010",Located in Jefferson County,missouri
Apple Exterminating,www.appleexterminating.com,1-314-631-9494,"Saint Louis, Missouri 63125",Located in St Louis City County,missouri
Art's Pest Control,www.artspestcontrol.com,1-573-634-3299,"Jefferson City, Missouri 65101",Located in Cole County,missouri
"B & D Pest Solutions, St. Louis",bdpestsolutionsstlouis.com/,1-314-644-8734,"Ballwin, Missouri 63011",Located in St Louis City County,missouri
Best Pest Solutions LLC,www.bestpestsolutions.com,1-816-265-0135,"Raymore, Missouri 64083",Located in Cass County,missouri
Blue Beetle Termite & Pest,www.bluebeetlepest.com,1-816-333-7378,"Kansas City, Missouri 64113",Located in Jackson County,missouri
Buggs Pest & Wildlife Control,www.kansascitywildlifepestcontrol.com,1-816-453-0770,"Kansas City, Missouri 64117",Located in Clay County,missouri
Chuck Pest Control,www.chuckspestcontrol.com,1-660-646-2074,"Trenton, Missouri 64683",Located in Grundy County,missouri
Darrel Kidd Extermination,dkiddpestcontrol.com,1-417-781-3155,"Joplin, Missouri 64804",Located in Jasper County,missouri
Deprow Services,www.deprow.com,1-573-335-0151,"Cape Girardeau, Missouri 63701",Located in Cape Girardeau County,missouri
Eagle Termite & Pest Control,www.eagletermiteandpestcontrol.com,1-636-978-7378,"O Fallon, Missouri 63366",Located in St Charles County,missouri
Ecopest Company,www.ecopestservices.com,1-816-763-1818,"Grandview, Missouri 64030",Located in Jackson County,missouri
Fayette MFA,www.glasgowmfa.com,1-660-248-3303,"Fayette, Missouri 65248",Located in Howard County,missouri
Global Instruments Limited,www.global-instruments.com,1-660-359-4398,"Trenton, Missouri 64683",Located in Grundy County,missouri
Gunter Pest Management Inc,www.gunterpest.com,1-816-523-0777,"Kansas City, Missouri 64114",Located in Jackson County,missouri
Midwest Pest Professionals LLC,www.midwestpestpros.com/,1-573-324-2313,"Bowling Green, Missouri 63334",Located in Pike County,missouri
Missouri Pest Control Association,mopma.org,1-573-761-5771,"Jefferson City, Missouri 65101",Located in Cole County,missouri
Mosquito Squad of St. Charles and West County,westcounty.mosquitosquad.com,1-636-561-1818,"Lake Saint Louis, Missouri 63367",Located in St Charles County,missouri
National Exterminating,www.pestmanagementsupply.com,1-816-221-1080,"Kansas City, Missouri 64116",Located in Clay County,missouri
Ozark Pest Solutions,camdentonpestcontrolcompany.com,1-573-227-2307,"Camdenton, Missouri 65020",Located in Camden County,missouri
Pest Control Supplies,www.pcspest.com,1-816-421-4696,"Riverside, Missouri 64150",Located in Platte County,missouri
Pied Piper Pest Control Inc,www.piedpiperpestcontrol.net,1-314-567-5672,"Saint Louis, Missouri 63146",Located in St Louis City County,missouri
Pierce & Son Termite & Pest,www.piercepestcontrol.com,1-816-279-5024,"Saint Joseph, Missouri 64506",Located in Buchanan County,missouri
Pioneer Pest Management,www.pioneerpeststl.com,1-314-822-1191,"Kirkwood, Missouri 63122",Located in St Louis City County,missouri
Reliable Pest Solutions,reliablepestsolutions.com,1-660-269-9878,"Moberly, Missouri 65270",Located in Randolph County,missouri
Rottler Pest Solutions,rottler.com,1-314-872-7378,"Maryland Heights, Missouri 63043",Located in St Louis County,missouri
Sho Me Pest LLC,www.shomepest.com,1-417-458-4111,"Plato, Missouri 65552",Located in Texas County,missouri
Stray Rescue Of St Louis,strayrescue.org,1-314-771-6121,"Saint Louis, Missouri 63103",Located in St Louis City County,missouri
The Bug Lady,thebugladystl.com,1-314-494-9726,"Saint Louis, Missouri 63119",Located in St Louis City County,missouri
Two Nice Guys Termite & Pest Control Services,www.2niceguys.com,1-636-464-1411,"Imperial, Missouri 63052",Located in Jefferson County,missouri
United Termite & Pest Control,www.unitedpest.com,1-573-333-0189,"Caruthersville, Missouri 63830",Located in Pemiscot County,missouri
Wildlife Rehabilitation Clinic,wild-life-rehab.com,1-636-677-3670,"High Ridge, Missouri 63049",Located in Jefferson County,missouri
Bozeman Tree Service Inc,www.bozemantreeservice.com,1-406-522-8733,"Bozeman, Montana 59718",Located in Gallatin County,montana
Expert Tree Care,www.experttreecarellc.com/,1-406-257-0025,"Kalispell, Montana 59903",Located in Flathead County,montana
Gerdes Windmill and Construction,windmill-man.com,1-402-337-1612,"McLean, Nebraska 68747",Located in Pierce County,nebraska
Lien Termite & Pest Control,www.lienpestcontrol.com,1-402-397-8884,"Omaha, Nebraska 68134",Located in Douglas County,nebraska
Mid-American Research Chemical,www.marc1.com,1-402-564-7104,"Columbus, Nebraska 68601",Located in Platte County,nebraska
"Anderson Pest Control, LLC",www.controlthebugs.com,1-702-656-8898,"Las Vegas, Nevada 89115",Located in Clark County,nevada
Beemaster of Las Vegas,www.beemasterlv.com,1-702-457-6700,"Las Vegas, Nevada 89162",Located in Clark County,nevada
Beyond Pest Control,www.beyondpest.com,1-702-983-4284,"Las Vegas, Nevada 89128",Located in Clark County,nevada
Bulwark Exterminating,www.pestprojoe.com,1-702-255-6313,"North Las Vegas, Nevada 89030",Located in Clark County,nevada
Bulwark Exterminating-Las VGS,www.bulwarkpestcontrol.com/lasvegaspestcontrol,1-702-255-6313,"Las Vegas, Nevada 89117",Located in Clark County,nevada
Crispy Critters Pest Control,www.crispycritterslasvegas.com,1-702-233-2847,"Las Vegas, Nevada 89101",Located in Clark County,nevada
Custom Pest Control,pestlasvegas.com,1-702-252-3596,"Las Vegas, Nevada 89145",Located in Clark County,nevada
D-Termination,www.dtermination.com/,1-702-878-1002,"Las Vegas, Nevada 89131",Located in Clark County,nevada
Desert Roots Pest Control,www.desertroots.biz,1-775-356-8657,"Sparks, Nevada 89434",Located in Washoe County,nevada
JS Pest Control,jspestcontrol.com/,1-702-248-7378,"Las Vegas, Nevada 89121",Located in Clark County,nevada
K 9 Sweeps LLC,www.k-9sweeps.com,1-702-586-5179,"Las Vegas, Nevada 89128",Located in Clark County,nevada
Progressive Pest Control,www.ppcvegas.com,1-702-438-9708,"Las Vegas, Nevada 89120",Located in Clark County,nevada
Ranger Pest Control,www.rangerpestlv.com/,1-702-222-2847,"Las Vegas, Nevada 89130",Located in Clark County,nevada
Ranger Pest Control,www.rangerpestlv.com,1-702-222-2847,"Las Vegas, Nevada 89130",Located in Clark County,nevada
Advanced Pest Control Service,www.apcs-ant.com,1-603-669-7255,"Manchester, New Hampshire 03109",Located in Hillsborough County,new-hampshire
All Creatures Pest Control,www.allcreaturespest.com,1-603-424-4994,"Merrimack, New Hampshire 03054",Located in Hillsborough County,new-hampshire
Colonial Pest Control Inc,www.colonialpest.com/,1-603-880-7900,"Nashua, New Hampshire 03063",Located in Hillsborough County,new-hampshire
DeBow Wildlife Service,www.debowwildlifeservice.com,1-603-536-0007,"Plymouth, New Hampshire 03264",Located in Grafton County,new-hampshire
Estate Wildlife Control,www.estatewildlifecontrol.com,1-603-523-9284,"Canaan, New Hampshire 03741",Located in Grafton County,new-hampshire
Granite State Chemical Pest Control,www.gscpestmanagement.com,1-603-433-8581,"Rye, New Hampshire 03870",Located in Rockingham County,new-hampshire
JP Pest Services,www.jppestservices.com,1-603-673-2908,"Milford, New Hampshire 03055",Located in Hillsborough County,new-hampshire
Maguire Pest Control,www.maguirepestcontrol.com/,1-603-772-3311,"Exeter, New Hampshire 03833",Located in Rockingham County,new-hampshire
Mosquito Squad of Central New Hampshire,centralnh.mosquitosquad.com,1-603-244-1634,"Raymond, New Hampshire 03077",Located in Rockingham County,new-hampshire
Mosquito Terminators of New Hampshire,www.mosquitocontrolnh.com,1-888-889-9944,"Epping, New Hampshire 03042",Located in Rockingham County,new-hampshire
Pest End Inc,pestendinc.com,1-603-382-9644,"Plaistow, New Hampshire 03865",Located in Rockingham County,new-hampshire
Southern NH Pest Control LLC,www.snhpc.com,1-603-888-2636,"Nashua, New Hampshire 03062",Located in Hillsborough County,new-hampshire
Abalene Termite & Pest Control,www.abalenepest.com,1-609-585-0054,"Trenton, New Jersey 08610",Located in Mercer County,new-jersey
Acorn Industrial Weed Control,acornpestmanagement.com,1-973-694-5953,"Wayne, New Jersey 07470",Located in Passaic County,new-jersey
Advantage Termite & Pest Control Inc,www.advantagepestcontrol.com,1-973-736-1007,"West Orange, New Jersey 07052",Located in Essex County,new-jersey
All County Home Inspection,www.homeinspectorsnj.com,1-609-693-5762,"Pine Beach, New Jersey 08741",Located in Ocean County,new-jersey
Arnold's Pest Control,www.arnoldspestcontrol.com,1-908-276-8062,"Cranford, New Jersey 07016",Located in Union County,new-jersey
Brown's Pest Control Company,www.brownsipm.com,1-856-825-1600,"Millville, New Jersey 08332",Located in Cumberland County,new-jersey
Callahan's Termite & Pest CNTR,www.bugsycal.com,1-732-899-3030,"Brick, New Jersey 08724",Located in Ocean County,new-jersey
Cato Termite & Pest Control,www.catopestcontrol.com,1-856-786-8008,"Cinnaminson, New Jersey 08077",Located in Burlington County,new-jersey
Cavanaugh's Termite & Pest Services - Freehold Area,www.cavanaughspest.com/,1-732-462-1321,"Freehold, New Jersey 07728",Located in Monmouth County,new-jersey
ChemTec Pest Management,chemtecpest.com,1-201-843-0780,"Saddle Brook, New Jersey 07663",Located in Bergen County,new-jersey
Cowley's Termite & Pest Services,www.cowleys.com/,1-732-719-2717,"Neptune, New Jersey 07753",Located in Monmouth County,new-jersey
Eliminex Termite & Pest,www.newjerseypest.com,1-732-309-4209,"South River, New Jersey 08882",Located in Middlesex County,new-jersey
Excel Termite & Pest Control,www.excelpestservices.com/,1-201-473-2179,"River Edge, New Jersey 07661",Located in Bergen County,new-jersey
Fruitwood Orchards Honey,www.fruitwoodorchardshoney.com,1-856-881-7748,"Monroeville, New Jersey 08343",Located in Salem County,new-jersey
Horizon Termite & Pest Control,www.horizonpestcontrol.com,1-201-447-2530,"Midland Park, New Jersey 07432",Located in Bergen County,new-jersey
J S Gilmer Termite & Pest,www.gilmerpestcontrol.com,1-973-584-7684,"Succasunna, New Jersey 07876",Located in Morris County,new-jersey
Jersey Pest Management Inc,www.castlehomepestcontrol.com,1-201-795-3100,"Jackson, New Jersey 08527",Located in Ocean County,new-jersey
KRB Pest Control,www.krbpestcontrol.com,1-973-669-8030,"West Orange, New Jersey 07052",Located in Essex County,new-jersey
Lady Bug Pest Service,www.ladybugpest.com,1-908-317-8576,"Westfield, New Jersey 07090",Located in Union County,new-jersey
Mosquito Squad of Morristown,morristown.mosquitosquad.com,1-973-850-3883,"Mount Laurel, New Jersey 08054",Located in Burlington County,new-jersey
Ozane Termite & Pest Control,www.ozane.com,1-732-449-3303,"Toms River, New Jersey 08755",Located in Ocean County,new-jersey
Perma Kill Exterminating Company,www.permakillservices.com,1-973-584-6414,"Flanders, New Jersey 07836",Located in Morris County,new-jersey
Pro-Tech Termite & Pest Cntrl,www.protechtpc.com,1-732-244-4015,"Barnegat, New Jersey 08005",Located in Ocean County,new-jersey
Professional Tech,protechtpc.com,1-609-698-3424,"Barnegat, New Jersey 08005",Located in Ocean County,new-jersey
Protex Termite & Pest Control,www.protexpest.net,1-732-873-8001,"Somerset, New Jersey 08873",Located in Somerset County,new-jersey
R M Termite & Pest Control,www.rmtermite.com,1-732-933-0606,"Somerset, New Jersey 08873",Located in Somerset County,new-jersey
R M Termite & Pest Control,rmtermite.com,1-908-428-4411,"Somerset, New Jersey 08873",Located in Somerset County,new-jersey
Richmond Pest Control,www.jerseypestcontrol.net,1-609-266-4200,"Brigantine, New Jersey 08203",Located in Atlantic County,new-jersey
Rid Termite & Pest Control - Egg Harbor Township,www.ridpc.com,1-609-646-7378,"Egg Harbor Township, New Jersey 08234",Located in Atlantic County,new-jersey
S & M Exterminating Company,www.smexterminating.com,1-732-636-8811,"Woodbridge, New Jersey 07095",Located in Middlesex County,new-jersey
Snare One,snareone.com,1-609-748-3541,"Port Republic, New Jersey 08241",Located in Atlantic County,new-jersey
Stern Environmental Group,www.sternenvironmental.com,1-201-319-9620,"Secaucus, New Jersey 07094",Located in Hudson County,new-jersey
Titan Pest Control,pestcontrolnjnyc.com,1-201-916-4603,"Edgewater, New Jersey 07020",Located in Bergen County,new-jersey
Uniced Exterminating Company,www.unexco.com,1-856-428-2511,"Haddonfield, New Jersey 08034",Located in Camden County,new-jersey
ABC Pest Management Service,www.abcpestmanagement.com,1-505-294-6601,"Albuquerque, New Mexico 87111",Located in Bernalillo County,new-mexico
Atomic Pest Control,www.atomicpestcontrol.org,1-505-489-1046,"Albuquerque, New Mexico 87107",Located in Bernalillo County,new-mexico
Border Pest Control Inc,www.pest-pros.com,1-575-546-7863,"Deming, New Mexico 88030",Located in Luna County,new-mexico
Davis Termite & Pest Control,www.davispestcontrolnm.com/,1-505-293-0511,"Albuquerque, New Mexico 87109",Located in Bernalillo County,new-mexico
Perma-Guard Inc,www.perma-guard.com,1-505-243-1460,"Rio Rancho, New Mexico 87124",Located in Sandoval County,new-mexico
Results Pest Control,www.resultspestcontrolnm.com,1-505-238-5118,"Rio Rancho, New Mexico 87144",Located in Sandoval County,new-mexico
Accurate Pest Solutions,www.accpest.com,1-315-733-2839,"Marcy, New York 13403",Located in Oneida County,new-york
Aladdin Exterminating Service,aladdinpestcontrol.com,1-516-248-6350,"New Hyde Park, New York 11040",Located in Nassau County,new-york
Arrow Exterminating CO Inc,www.arrowexterminating.com,1-718-474-3336,"Lynbrook, New York 11563",Located in Nassau County,new-york
Assured Environments,assuredenvironments.com,1-212-480-5800,"New York, New York 10006",Located in New York County,new-york
BHB Pest Elimination,www.bhbnynj.com,1-212-242-3383,"New York, New York 10001",Located in New York County,new-york
Bug Clinic,www.bugclinic.com,1-845-356-2837,"Spring Valley, New York 10977",Located in Rockland County,new-york
Bug Lady Pest Elimination Inc,www.bugmanrochester.com,1-585-334-3880,"Henrietta, New York 14467",Located in Monroe County,new-york
C & C Wildlife Management,www.ccwildlife.com,1-518-364-7195,"Delmar, New York 12054",Located in Albany County,new-york
Colony Pest Control Company,colonypestnyc.com,1-718-856-1400,"Brooklyn, New York 11234",Located in Kings County,new-york
Diamond Pest Elimination,dpest.com,1-585-723-6589,"Rochester, New York 14626",Located in Monroe County,new-york
Doctor Sniffs Bed Bug Dogs,doctorsniffs.com/,1-718-964-3484,"New York, New York 10002",Located in New York County,new-york
DWL,dwlbrand.com,1-518-882-9145,"Galway, New York 12074",Located in Saratoga County,new-york
Enviro Tech Pest Elimination,www.envirotechpestcontrol.com,1-315-637-0720,"Fayetteville, New York 13066",Located in Onondaga County,new-york
Environmental Chemical CO Inc,www.envirochemco.com,1-845-356-2837,"Spring Valley, New York 10977",Located in Rockland County,new-york
Environmental Technical Group,www.etgonline.com,1-315-634-3333,"Syracuse, New York 13212",Located in Onondaga County,new-york
Hudson Valley Pest Control,www.hvopc.com,1-518-477-4191,"East Greenbush, New York 12061",Located in Rensselaer County,new-york
JB Pest Control Inc,www.jbpest.com,1-718-818-8600,"Staten Island, New York 10314",Located in Richmond County,new-york
Kingsway Exterminating CO Inc,www.kingswayexterminating.com,1-212-509-2550,"New York, New York 10016",Located in New York County,new-york
Knockout Pest Control,www.knockoutpest.com,1-516-489-7817,"Uniondale, New York 11553",Located in Nassau County,new-york
Liberty Home Inspection,www.allcountypestcontrol.com,1-845-628-9026,"Mahopac, New York 10541",Located in Putnam County,new-york
MPE - Brooklyn Pest Control,www.brooklynpestcontrolservices.com,1-917-688-4951,"Brooklyn, New York 11216",Located in Kings County,new-york
Nardy Pest Control Inc,www.nardypest.com,1-631-726-4777,"Southampton, New York 11968",Located in Suffolk County,new-york
Nybec,nybec.com,1-516-488-7009,"Floral Park, New York 11001",Located in Nassau County,new-york
"Pest Pro Exterminating Co., Inc.",www.pestproexterminating.com,1-631-661-0900,"Bohemia, New York 11716",Located in Suffolk County,new-york
Pest Professional Management Inc,www.pestpro.us,1-914-761-4844,"White Plains, New York 10606",Located in Westchester County,new-york
Pestech - Pest Control Systems,www.pestech.com,1-800-287-2847,"Ferndale, New York 12734",Located in Sullivan County,new-york
"Pestrol, Inc",www.pestrol.com,1-212-304-5116,"New York, New York 10040",Located in New York County,new-york
Procheck Inc,www.procheckfoodsafety.com,1-315-635-9720,"Baldwinsville, New York 13027",Located in Onondaga County,new-york
"RCD Exterminating, Inc.",www.rcdext.com,1-585-453-9748,"Rochester, New York 14626",Located in Monroe County,new-york
React Pest Control,www.reactpestcontrol.com,1-631-689-1421,"East Setauket, New York 11733",Located in Suffolk County,new-york
Regal Pest Management,www.regalpest.net,1-914-674-1102,"Ardsley, New York 10502",Located in Westchester County,new-york
RJS Pest Management,www.rjspest.com,1-212-896-1299,"New York, New York 10017",Located in New York County,new-york
Rochester Pest Management,buffaloexterminating.com,1-585-424-2710,"Orchard Park, New York 14127",Located in Erie County,new-york
Rudy's Exterminating Company,www.rudysexterminating.com,1-718-932-8611,"Astoria, New York 11105",Located in Queens County,new-york
Safeguard Chemical Corporation,www.safeguardchemical.com,1-718-585-3170,"Bronx, New York 10454",Located in Bronx County,new-york
Scientific Advisory Service Limited,scientificadvisory.com,1-516-482-5374,"Great Neck, New York 11023",Located in Nassau County,new-york
Standard Extrmintg CO Inc,www.standardpest.com,1-718-728-4040,"Astoria, New York 11103",Located in Queens County,new-york
Star Pest Control,www.starpest.com,1-585-346-9825,"Livonia, New York 14487",Located in Livingston County,new-york
Tree Doctor,www.treedoctorconsulting.com,1-716-759-6611,"Clarence, New York 14031",Located in Erie County,new-york
Unlimited Pest Elimination Inc,www.unlimitedpest.com,1-718-966-1234,"Staten Island, New York 10309",Located in Richmond County,new-york
Veganix Affordable pest control,www.veganixpestcontrol.com,1-914-602-2959,"Elmsford, New York 10523",Located in Westchester County,new-york
Wildlife Control Services of the Hudson Valley,WIldlifeControlServices.com,1-845-489-6148,"Millbrook, New York 12545",Located in Dutchess County,new-york
A-1 Wildlife Control Inc,a1wildlifecontrol.net,1-704-209-4538,"Mint Hill, North Carolina 28227",Located in Mecklenburg County,north-carolina
Aaa Exterminating,www.aaaexterminatingonline.com,1-919-271-9790,"Raleigh, North Carolina 27606",Located in Wake County,north-carolina
Aberdeen Exterminating Co,www.aberdeenexterminating.com,1-910-944-2474,"Aberdeen, North Carolina 28315",Located in Moore County,north-carolina
Action Pest Exterminating,actionpestexterminating.com,1-704-563-1941,"Charlotte, North Carolina 28215",Located in Mecklenburg County,north-carolina
Advanced Termite & Pest Contrl,www.mybugman.com,1-252-244-6870,"Vanceboro, North Carolina 28586",Located in Craven County,north-carolina
Adventure Wildlife Service,adventurewildlifeservices.com,1-252-943-2885,"Pantego, North Carolina 27860",Located in Beaufort County,north-carolina
Animal Control Experts LLC,theanimalcontrolexperts.com,1-704-391-0500,"Matthews, North Carolina 28105",Located in Mecklenburg County,north-carolina
Antex Exterminating,pestcontrolnorthcarolina.com,1-910-684-6501,"Fayetteville, North Carolina 28311",Located in Cumberland County,north-carolina
Apex Exterminating,apexexterminatinginc.com,1-704-573-1197,"Waxhaw, North Carolina 28173",Located in Union County,north-carolina
Arrest A Pest Exterminating,www.arrestapestexterminator.com,1-919-658-9110,"Mount Olive, North Carolina 28365",Located in Wayne County,north-carolina
Arrow Exterminators,www.arrow-exterminators.com,1-336-273-6253,"Greensboro, North Carolina 27401",Located in Guilford County,north-carolina
Bening Pest Management,beningpestmanagement.com/,1-919-469-5233,"Cary, North Carolina 27519",Located in Wake County,north-carolina
Black Pest Control,www.blackpest.com,1-704-522-9222,"Charlotte, North Carolina 28217",Located in Mecklenburg County,north-carolina
Blue Ridge Termite & Pest Service,www.blueridgetermite.com,1-828-685-8444,"Hendersonville, North Carolina 28792",Located in Henderson County,north-carolina
Bug-N-A-Rug Exterminators,www.bugnarug.com,1-910-254-9443,"Wilmington, North Carolina 28401",Located in New Hanover County,north-carolina
Bulwark Exterminating,www.bulwarkpestcontrol.com/charlottepestcontrol.php,1-704-321-3716,"Charlotte, North Carolina 28206",Located in Mecklenburg County,north-carolina
Bulwark Exterminating,www.bulwarkpestcontrol.com/raleigh/greensboropestcontrol.php,1-336-662-0043,"Greensboro, North Carolina 27401",Located in Guilford County,north-carolina
Bulwark Exterminating,www.bulwarkpestcontrol.com/raleighpestcontrol.php,1-919-481-0007,"Morrisville, North Carolina 27560",Located in Wake County,north-carolina
Canady & Son Exterminating Inc,www.canadyandson.com,1-910-686-9541,"Wilmington, North Carolina 28411",Located in New Hanover County,north-carolina
Capital Pest Service Inc,capitalpest.com,1-919-847-8110,"Raleigh, North Carolina 27615",Located in Wake County,north-carolina
Carolina Exterminators,carolinaexterminators.com,1-910-675-2379,"Rocky Point, North Carolina 28457",Located in Pender County,north-carolina
Carolina Pest Management,www.carolinapest.com/,1-704-283-1527,"Charlotte, North Carolina 28210",Located in Mecklenburg County,north-carolina
Carolina Wildlife & Pest CNTRL,www.carolinawildliferemoval.com,1-919-231-7797,"Raleigh, North Carolina 27604",Located in Wake County,north-carolina
Chamberlain Exterminators LLC,www.chamberlainext.com,1-704-663-7707,"Mooresville, North Carolina 28115",Located in Iredell County,north-carolina
Champion Pest Services,championpestservices.com,1-919-550-3744,"Clayton, North Carolina 27527",Located in Johnston County,north-carolina
ClearDefense Pest Control,www.cleardefensepest.com,1-919-636-6900,"Durham, North Carolina 27703",Located in Durham County,north-carolina
ClearDefense Pest Control,www.cleardefensepest.com,1-704-879-2810,"Charlotte, North Carolina 28217",Located in Mecklenburg County,north-carolina
Cleggs Pest Control,cleggs.com,1-919-477-2134,"Durham, North Carolina 27705",Located in Durham County,north-carolina
Clint Miller Exterminating Inc,www.cmillerext.com,1-704-436-6607,"Mount Pleasant, North Carolina 28124",Located in Cabarrus County,north-carolina
Coastal Exterminating,www.coastalexterminatinginc.com,1-910-392-4909,"Wilmington, North Carolina 28405",Located in New Hanover County,north-carolina
Commercial Services Inc,fessinc.net,1-919-469-8099,"Morrisville, North Carolina 27560",Located in Wake County,north-carolina
Dellinger Exterminating Co Inc,www.dellingerexterminating.com,1-704-827-4991,"Stanley, North Carolina 28164",Located in Gaston County,north-carolina
Frontier Pest Control,www.frontierpestcontrol.com,1-919-620-6873,"Durham, North Carolina 27704",Located in Durham County,north-carolina
General Pest Co.,www.generalpestco.com,1-704-777-8003,"Charlotte, North Carolina 28203",Located in Mecklenburg County,north-carolina
Gibson Pest Control Inc,www.gibsonpest.com,1-828-684-1353,"Arden, North Carolina 28704",Located in Buncombe County,north-carolina
Global Pest Supply,www.globaltestsupply.com,1-910-221-9344,"Wilmington, North Carolina 28405",Located in New Hanover County,north-carolina
Go-Forth Pest Management Inc,www.go-forth.com/asheboro,1-336-672-1094,"Asheboro, North Carolina 27203",Located in Randolph County,north-carolina
Goose Busters,www.gogeese.com,1-704-365-2497,"Charlotte, North Carolina 28270",Located in Mecklenburg County,north-carolina
Heritage Wildlife Removal,heritagewildlife.com,1-336-940-8209,"Statesville, North Carolina 28625",Located in Iredell County,north-carolina
Homespectors Termite & Pest,www.gastoniapestcontrol.com,1-704-724-1450,"Gastonia, North Carolina 28052",Located in Gaston County,north-carolina
Innovative Pest Management Inc,www.489bugs.com,1-704-489-2847,"Denver, North Carolina 28037",Located in Lincoln County,north-carolina
Insight Pest Solutions,insightpest.com,1-919-439-2159,"Morrisville, North Carolina 27560",Located in Wake County,north-carolina
"Integrated Pest Management, Inc.",www.ipmservicesinc.com,1-800-747-5383,"Wilmington, North Carolina 28404",Located in New Hanover County,north-carolina
J & J Pest Solutions,www.fayettevilletermitetreatment.com/,1-910-630-1995,"Fayetteville, North Carolina 28311",Located in Cumberland County,north-carolina
King Exterminating Co.,rockymountpestcontrolservices.com,1-888-310-0083,"Rocky Mount, North Carolina 27804",Located in Nash County,north-carolina
Lake Norman Pest & Lawn,www.lakenormanpest.com/,1-704-663-6440,"Mooresville, North Carolina 28117",Located in Iredell County,north-carolina
Lake Norman Pest Control,www.lakenormanpest.com,1-704-483-4622,"Mooresville, North Carolina 28117",Located in Iredell County,north-carolina
Master Exterminators,www.masterexterminators.com,1-910-425-1465,"Fayetteville, North Carolina 28306",Located in Cumberland County,north-carolina
May Exterminating Co,www.mayexterminating.com/,1-910-455-5888,"Jacksonville, North Carolina 28546",Located in Onslow County,north-carolina
Maynard Termite & Pest Control,www.maynardpest.com,1-828-327-4341,"Hickory, North Carolina 28602",Located in Catawba County,north-carolina
Mosquito Patrol,www.mosquitopatrolnc.com,1-980-819-0575,"Harrisburg, North Carolina 28075",Located in Cabarrus County,north-carolina
Mosquito Squad of Asheville,asheville.mosquitosquad.com,1-828-575-9088,"Asheville, North Carolina 28805",Located in Buncombe County,north-carolina
Mosquito Squad of Burlington,burlington.mosquitosquad.com,1-336-545-1729,"Greensboro, North Carolina 27408",Located in Guilford County,north-carolina
Mosquito Squad of Chapel Hill,chapelhill.mosquitosquad.com,1-919-682-4050,"Matthews, North Carolina 28104",Located in Union County,north-carolina
Mosquito Squad of Charlotte,charlotte.mosquitosquad.com,1-704-821-0805,"Matthews, North Carolina 28104",Located in Union County,north-carolina
Mosquito Squad of Fayetteville,fayetteville.mosquitosquad.com,1-910-779-2656,"Fayetteville, North Carolina 28305",Located in Cumberland County,north-carolina
Mosquito Squad of Raleigh-Cary,raleigh-cary.mosquitosquad.com,1-919-851-5135,"Raleigh, North Carolina 27607",Located in Wake County,north-carolina
Mosquito Squad of the Crystal Coast,crystal-coast.mosquitosquad.com,1-252-393-7378,"Cape Carteret, North Carolina 28584",Located in Onslow County,north-carolina
Mosquito Squad of Wilmington,wilmington.mosquitosquad.com,1-910-791-9800,"Wilmington, North Carolina 28412",Located in New Hanover County,north-carolina
Mosquito Squad-Raleigh Durham,raleigh-durham.mosquitosquad.com/,1-919-851-5135,"Raleigh, North Carolina 27607",Located in Wake County,north-carolina
Mosquito Tek LLC,www.mosquitofreeliving.com,1-919-323-3901,"Durham, North Carolina 27701",Located in Durham County,north-carolina
Nixon Exterminating Inc,www.nixonexterminating.com,1-704-864-4303,"Gastonia, North Carolina 28054",Located in Gaston County,north-carolina
Noosa Pest Management,noosapest.com,1-704-251-7199,"Mooresville, North Carolina 28117",Located in Iredell County,north-carolina
Noosa Pest Management,www.noosapest.com,1-704-499-9922,"Charlotte, North Carolina 28226",Located in Mecklenburg County,north-carolina
Palmetto Exterminators Inc,www.palmettoexterminators.net/,1-704-882-0641,"Monroe, North Carolina 28110",Located in Union County,north-carolina
Pest Control Authority Inc,www.thepestcontrolauthority.com,1-704-377-2847,"Charlotte, North Carolina 28205",Located in Mecklenburg County,north-carolina
Piper Pest Control Inc,www.piperpestcontrol.com,1-919-266-9421,"Wake Forest, North Carolina 27587",Located in Wake County,north-carolina
Pisgah Pest Control,pisgahpestcontrol.com,1-828-684-5119,"Brevard, North Carolina 28712",Located in Transylvania County,north-carolina
Pisgah Pest Control Inc,www.pisgahpestcontrol.com,1-828-883-8472,"Brevard, North Carolina 28712",Located in Transylvania County,north-carolina
Quality Control Termite & Pest,www.aqualitycontrolinc.com,1-828-264-6911,"Boone, North Carolina 28607",Located in Watauga County,north-carolina
Smith Exterminating Company Inc,www.smithexterminating.com/,1-919-851-0220,"Raleigh, North Carolina 27606",Located in Wake County,north-carolina
South Atlantic Service Inc,www.south-atlantic-svcs.com,1-910-763-3496,"Wilmington, North Carolina 28401",Located in New Hanover County,north-carolina
Stomp Pest Control,stomppestcontrol.com,1-919-231-3292,"Raleigh, North Carolina 27617",Located in Wake County,north-carolina
Turf Pros,www.theturf-pros.com,1-910-754-9944,"South Brunswick, North Carolina 28470",Located in Brunswick County,north-carolina
X Team,www.xteamtermiteandpest.com,1-252-634-1779,"New Bern, North Carolina 28560",Located in Craven County,north-carolina
Bullinger Tree Service,bullingertreeservice.com,1-701-663-5121,"Mandan, North Dakota 58554",Located in Morton County,north-dakota
Dakota Gasification Company,dakotagas.com,1-701-223-0441,"Bismarck, North Dakota 58503",Located in Burleigh County,north-dakota
Advantage Wildlife Removal,www.advantage-wr.com,1-513-984-8881,"New Richmond, Ohio 45157",Located in Clermont County,ohio
Allied Exterminating Inc,www.alliedexterminators.com,1-440-277-7141,"Cleveland, Ohio 44111",Located in Cuyahoga County,ohio
Allied Exterminators,www.alliedexterminators.com,1-440-899-7500,"Cleveland, Ohio 44111",Located in Cuyahoga County,ohio
Alpha Pest Control,www.alphapestcontrol.net,1-330-723-0903,"Brunswick, Ohio 44212",Located in Medina County,ohio
Alpha Pest Control,www.alphapestcontrol.net,1-216-281-1251,"Cleveland, Ohio 44102",Located in Cuyahoga County,ohio
Ameriturf,www.ameriturf.net,1-740-373-7928,"Marietta, Ohio 45750",Located in Washington County,ohio
Assure-Tech Pest Control,assuretechpestcont.wix.com/assuretechpest,1-440-341-0051,"Cleveland, Ohio 44135",Located in Cuyahoga County,ohio
Barnes Wildlife Control,barneswildlifecontrol.com,1-937-340-1867,"Dayton, Ohio 45431",Located in Greene County,ohio
Brown Pest Control,www.brownpestcontrol.com,1-937-293-2468,"Dayton, Ohio 45405",Located in Montgomery County,ohio
Bug Buster,www.bugbusterinc.com,1-330-650-2858,"Hudson, Ohio 44236",Located in Summit County,ohio
Certified Termite Inspections,www.termiteorder.com,1-216-739-0511,"Cleveland, Ohio 44109",Located in Cuyahoga County,ohio
Chuck's Termite & Pest Control,www.chuckstermite.com,1-513-985-9362,"Cincinnati, Ohio 45236",Located in Hamilton County,ohio
Cleveland Chemical Pest,www.clevelandchemical.com,1-216-481-8400,"Cleveland, Ohio 44119",Located in Cuyahoga County,ohio
Columbus Pest Control,www.columbuspestcontrolinc.com,1-614-279-1587,"Columbus, Ohio 43222",Located in Franklin County,ohio
Darke County Pest Control,a-abel.com,1-937-548-0987,"Dayton, Ohio 45459",Located in Montgomery County,ohio
Ecocare Pest Control,www.buckeyeecocare.com,1-937-435-4727,"Dayton, Ohio 45459",Located in Montgomery County,ohio
Environmental Pest Management,www.epm1.net,1-614-771-8605,"Hilliard, Ohio 43026",Located in Franklin County,ohio
Express Pest Control,www.expresspestcontrol.com,1-440-891-9411,"Olmsted Falls, Ohio 44138",Located in Cuyahoga County,ohio
First Choice Pest Management,www.firstchoicepest.com,1-330-832-4642,"Massillon, Ohio 44646",Located in Stark County,ohio
Friend's Termite & Pest Cntrl,www.friendspest.com,1-419-472-7378,"Toledo, Ohio 43623",Located in Lucas County,ohio
Independent Termite & Pest,www.independentpestcontrol.com,1-740-397-4770,"Mount Vernon, Ohio 43050",Located in Knox County,ohio
Insect X Pest Solutions LLC,www.insectx.com,1-440-442-4364,"Cleveland, Ohio 44143",Located in Cuyahoga County,ohio
Lake Wild Life Control Service Div,www.lakewildlife.com,1-216-738-1984,"Cleveland, Ohio 44108",Located in Cuyahoga County,ohio
Lakewood Exterminating,lakewoodexterminating.com,1-216-466-2486,"Lakewood, Ohio 44107",Located in Cuyahoga County,ohio
Major Supply,www.majorsupply.com,1-513-863-7151,"Hamilton, Ohio 45015",Located in Butler County,ohio
Mosquito Squad of Northwest Ohio,nwohio.mosquitosquad.com,1-419-708-0034,"Marietta, Ohio 45750",Located in Washington County,ohio
Ohio Exterminating Company,www.ohioexterminating.com,1-614-294-6311,"Columbus, Ohio 43201",Located in Franklin County,ohio
Ohio Pest Control,www.ohiopest.com,1-740-532-1137,"Portsmouth, Ohio 45662",Located in Scioto County,ohio
Olson Products Inc,olsonproducts.com,1-330-723-3210,"Medina, Ohio 44256",Located in Medina County,ohio
Patrick's Pest Control,www.patrickspestcontrol.org,1-234-525-2847,"Akron, Ohio 44320",Located in Summit County,ohio
Precision Pest Inspections,www.ppiohio.com,1-614-863-9981,"Reynoldsburg, Ohio 43068",Located in Franklin County,ohio
Prevent Pest Control,www.preventpestcontrol.com,1-440-322-0887,"Elyria, Ohio 44035",Located in Lorain County,ohio
Prevent Pest Control,www.preventpestcontrol.com/,1-440-322-0887,"Cleveland, Ohio 44105",Located in Cuyahoga County,ohio
Scotts Miracle-Gro Company,scotts.com,1-937-644-0011,"Marysville, Ohio 43041",Located in Union County,ohio
State Termite & Pest Solutions,www.statetermite.com,1-330-478-1402,"North Canton, Ohio 44720",Located in Stark County,ohio
Sure Thing Pest Control,www.surethingpc.com,1-513-489-0199,"Cincinnati, Ohio 45249",Located in Hamilton County,ohio
Accent Pest Control Inc,www.accentpest.com,1-918-336-5942,"Bartlesville, Oklahoma 74003",Located in Washington County,oklahoma
Ace Exterminators,www.acetermite.com,1-405-745-0902,"Oklahoma City, Oklahoma 73179",Located in Oklahoma County,oklahoma
Acenitec Exterminating Service,www.acenitec.com,1-405-632-6171,"Oklahoma City, Oklahoma 73112",Located in Oklahoma County,oklahoma
Action Pest Management Inc,www.takeactionpestcontrol.com,1-918-902-9687,"Broken Arrow, Oklahoma 74012",Located in Tulsa County,oklahoma
Advanced Pest and Termite,www.advancedpestlawton.com,1-580-583-4844,"Lawton, Oklahoma 73505",Located in Comanche County,oklahoma
Aero Cleaning Inc,aerocleaning.net,1-405-843-9678,"Oklahoma City, Oklahoma 73116",Located in Oklahoma County,oklahoma
Allstate Termite & Pest CNTRL,www.badonbugs.com,1-580-226-5555,"Ardmore, Oklahoma 73401",Located in Carter County,oklahoma
Gonzalez Pest Control LLC,www.gonzalezpestcontrol.com,1-405-224-3284,"Chickasha, Oklahoma 73018",Located in Grady County,oklahoma
Guaranty Exterminating Company,www.guarantyexterminating.net,1-918-665-2129,"Tulsa, Oklahoma 74146",Located in Tulsa County,oklahoma
Hollytree Landscaping & Garden,www.hollytreeinc.com,1-918-786-7080,"Grove, Oklahoma 74344",Located in Delaware County,oklahoma
King Pest Control Inc,www.kingpestcontrol.com,1-405-359-9690,"Edmond, Oklahoma 73013",Located in Oklahoma County,oklahoma
LawnAmerica,lawnamerica.com/,1-918-249-5296,"Tulsa, Oklahoma 74146",Located in Tulsa County,oklahoma
Mother Nature's Pest Control,www.mothernaturesinc.com,1-405-278-8100,"Oklahoma City, Oklahoma 73116",Located in Oklahoma County,oklahoma
Murray Pest Control,themurraypestcontrol.com,1-405-377-7777,"Stillwater, Oklahoma 74074",Located in Payne County,oklahoma
Oklahoma Termite Specialist,www.oktermite.com,1-405-330-5030,"Edmond, Oklahoma 73013",Located in Oklahoma County,oklahoma
Peak Pest Service LLC,peakpestservices.com,1-405-372-7774,"Stillwater, Oklahoma 74074",Located in Payne County,oklahoma
Statewide Termite & Pest Cntrl,www.statewideok.com,1-405-701-0399,"Norman, Oklahoma 73072",Located in Cleveland County,oklahoma
Stonehenge Realty,stonehengerealtystw.com,1-405-533-2999,"Stillwater, Oklahoma 74074",Located in Payne County,oklahoma
Strike 3 Pest Control,www.strike3pestcontrol.com,1-405-590-2072,"Edmond, Oklahoma 73083",Located in Oklahoma County,oklahoma
"Sure Shot Exterminating, Inc.",www.sureshottulsa.com/,1-918-259-9058,"Tulsa, Oklahoma 74146",Located in Tulsa County,oklahoma
Town & Country Critter Evictor-,www.critterremovalokc.com,1-405-409-5987,"Piedmont, Oklahoma 73078",Located in Canadian County,oklahoma
Western Pest Control,www.westernpest.net,1-580-323-2539,"Clinton, Oklahoma 73601",Located in Custer County,oklahoma
1-800-FAT-BUGS Pest Control,www.FatBugs.com,1-800-328-2847,"Newberg, Oregon 97132",Located in Yamhill County,oregon
Affordable Pest Control Company,www.affordablepestcontrolllc.com,1-503-635-8137,"Lake Oswego, Oregon 97035",Located in Clackamas County,oregon
All About Pests LLC,www.salem-pest-control.com,1-503-798-7386,"Salem, Oregon 97301",Located in Marion County,oregon
All Pest Control Company,www.allpestcontrolcompany.com,1-503-968-5950,"Portland, Oregon 97223",Located in Washington County,oregon
AllPro Wildlife Removal LLC,www.allprowildliferemoval.com/,1-503-766-6332,"Tualatin, Oregon 97062",Located in Washington County,oregon
American Extermination PLUS INC,www.americanextermination.com/,1-503-656-4044,"Portland, Oregon 97201",Located in Multnomah County,oregon
Bug Busters,www.fatbugs.com/,1-503-434-2847,"Mcminnville, Oregon 97128",Located in Yamhill County,oregon
Bug Shield Termite-PeSt CNTRL,bugshieldpestcontrol.com,1-503-851-4937,"Salem, Oregon 97306",Located in Marion County,oregon
Bug Zapper Pest Control,www.bugzapperpestcontrol.com,1-541-672-6339,"Roseburg, Oregon 97470",Located in Douglas County,oregon
Columbia Pest Control Inc,www.columbiapestcontrol.com/,1-503-254-1606,"Portland, Oregon 97220",Located in Multnomah County,oregon
Critter Getter Wildlife Control,lincolncityanimalcontrolcompany.com,1-541-418-0788,"Lincoln City, Oregon 97367",Located in Lincoln County,oregon
Eagle Eye Inspections,www.KensEagleEye.com,1-503-260-4300,"Aloha, Oregon 97007",Located in Washington County,oregon
Evergreen Pest Management,www.nobugs4u.com,1-503-925-9752,"Sherwood, Oregon 97140",Located in Washington County,oregon
Exodus Pest Control,exoduspestcontrol.com,1-503-575-0500,"Portland, Oregon 97229",Located in Washington County,oregon
Ez Pest Management Services Inc,www.portlandspestcontrol.com,1-503-777-1140,"Portland, Oregon 97231",Located in Multnomah County,oregon
Healthy Home Pest Control LLC,healthyhomepest.com,1-541-570-0095,"Lebanon, Oregon 97355",Located in Linn County,oregon
Jackson Pest Control,www.jacksonexterminators.com,1-503-246-7402,"Portland, Oregon 97211",Located in Multnomah County,oregon
Mole Masters,www.molemasters.com/,1-503-698-4606,"Clackamas, Oregon 97015",Located in Clackamas County,oregon
Mole Patrol EXT,molepatrolonline.com,1-503-246-0839,"Lake Oswego, Oregon 97034",Located in Clackamas County,oregon
Mole Works Extermnation Inc,www.moleworkspdx.com,1-503-760-4280,"Tigard, Oregon 97281",Located in Washington County,oregon
Nature First Pest Control,www.naturefirstpest.com,1-503-579-3680,"Portland, Oregon 97223",Located in Washington County,oregon
Oregon Insect & Rodent Control,www.oregoninsectandrodentcontrol.com,1-503-784-1669,"Gresham, Oregon 97030",Located in Multnomah County,oregon
Rasmussen Spray Service Inc,www.rasmussenspray.com/,1-503-363-7205,"Salem, Oregon 97302",Located in Marion County,oregon
Salem Pest Management,www.salempest.com/,1-503-990-6368,"Salem, Oregon 97317",Located in Marion County,oregon
Sherwood Pest Control,sherwoodpestcontrol.com/,1-503-476-3575,"Sherwood, Oregon 97140",Located in Washington County,oregon
Stutzman Farms Fertilizer Plant,www.stutzman-environmental.com,1-503-266-4610,"Canby, Oregon 97013",Located in Clackamas County,oregon
Termitech Pest Control,www.termitechpest.com,1-503-927-2772,"Portland, Oregon 97220",Located in Multnomah County,oregon
Tough Bug Solutions,www.toughbugsolutions.com/,1-503-643-1600,"Portland, Oregon 97219",Located in Multnomah County,oregon
A Z Tech Home Inspections,www.a-ztech.us,1-724-836-0328,"Greensburg, Pennsylvania 15601",Located in Westmoreland County,pennsylvania
Aardvark Pest Management Inc,www.aardvarkpestmgmt.com,1-215-333-4442,"Philadelphia, Pennsylvania 19136",Located in Philadelphia County,pennsylvania
All American Termite & Pest Control,allamericantermiteandpestcontrol.com,1-717-233-2801,"Highspire, Pennsylvania 17034",Located in Dauphin County,pennsylvania
Allegheny Pest Control,www.alleghenypestcontrol.com,1-412-384-2866,"Jefferson Hills, Pennsylvania 15025",Located in Allegheny County,pennsylvania
Archer Pest Control,www.archerpestcontrol.com,1-717-737-2724,"Harrisburg, Pennsylvania 17103",Located in Dauphin County,pennsylvania
Better Homes Termite & Pest,emoyer.com,1-215-362-6600,"Souderton, Pennsylvania 18964",Located in Montgomery County,pennsylvania
Ehrlich Pest Control,www.jcehrlich.com/johnstown-pa/,1-814-535-7872,"Pittsburgh, Pennsylvania 15236",Located in Allegheny County,pennsylvania
Gilbert's Professional Pest,www.gilbertspestcontrol.com,1-717-249-6667,"Carlisle, Pennsylvania 17013",Located in Cumberland County,pennsylvania
Humphreys Pest Control CO Inc,www.humphreyspestcontrol.com,1-215-464-3356,"Glenside, Pennsylvania 19038",Located in Montgomery County,pennsylvania
Lebanon Seaboard Corporation,lebsea.com,1-717-273-1685,"Lebanon, Pennsylvania 17042",Located in Lebanon County,pennsylvania
Mac Laughlin Pest Control,www.bugthug.com,1-814-472-0887,"Ebensburg, Pennsylvania 15931",Located in Cambria County,pennsylvania
Mad Exterminators Inc.,www.madexterminators.com,1-215-646-3584,"Newtown Square, Pennsylvania 19073",Located in Delaware County,pennsylvania
Mosquito Shield-Southeastern,www.moshield.com/southeastern-pennsylvania/,1-484-947-2939,"West Chester, Pennsylvania 19382",Located in Chester County,pennsylvania
Mosquito Squad of Chester County,chestercounty.mosquitosquad.com,1-610-674-0799,"Bethlehem, Pennsylvania 18020",Located in Northampton County,pennsylvania
Pest Control Technicians,www.pctbugfree.com/,1-610-275-7378,"Philadelphia, Pennsylvania 19147",Located in Philadelphia County,pennsylvania
Prodigy Pest Solutions,www.prodigypestsolutions.com,1-267-603-1811,"Ridley Park, Pennsylvania 19078",Located in Delaware County,pennsylvania
Protective Pest Control,www.protectivepest.com,1-814-445-2147,"Johnstown, Pennsylvania 15905",Located in Cambria County,pennsylvania
Spectrum Control Inc,spectrumcontrol.com,1-814-474-4698,"Fairview, Pennsylvania 16415",Located in Erie County,pennsylvania
Spectrum Pest Control,www.spectrumpestcontrolinc.com/beaver-pa/,1-724-292-7504,"Washington, Pennsylvania 15301",Located in Washington County,pennsylvania
Sudden Death Termite & Pest,suddendeathpest.com,1-717-233-2249,"New Cumberland, Pennsylvania 17070",Located in Cumberland County,pennsylvania
Swarmbustin' Honey,www.911honey.com,1-610-347-0400,"West Grove, Pennsylvania 19390",Located in Chester County,pennsylvania
Tri County Pest Control,www.tri-countypestcontrol.com,1-814-676-6760,"Oil City, Pennsylvania 16301",Located in Venango County,pennsylvania
Tri State Pest Management,tristatepestmgt.com,1-610-444-0520,"West Grove, Pennsylvania 19390",Located in Chester County,pennsylvania
Universal Pest Service,www.universal-pest.com,1-610-449-0740,"Havertown, Pennsylvania 19083",Located in Delaware County,pennsylvania
Witt Pest Control,www.wittpm.com,1-724-483-2806,"Pittsburgh, Pennsylvania 15219",Located in Allegheny County,pennsylvania
Woodstream Corporation,www.woodstream.com,1-717-626-2125,"Lititz, Pennsylvania 17543",Located in Lancaster County,pennsylvania
American Deer Proofing Inc,www.deerproofing.com,1-401-792-8900,"West Kingston, Rhode Island 02892",Located in Washington County,rhode-island
Arrest A Pest Inc,www.arrestapest.com,1-401-738-3766,"Warwick, Rhode Island 02886",Located in Kent County,rhode-island
Biotech Pest Controls,www.biotechpestcontrols.com,1-401-315-2400,"Westerly, Rhode Island 02891",Located in Washington County,rhode-island
Kent County Pest Control,www.kentcountypestcontrol.com,1-401-569-0212,"Johnston, Rhode Island 02919",Located in Providence County,rhode-island
Mosquito Squad of RI,rhodeisland.mosquitosquad.com/,1-401-575-2316,"Greenville, Rhode Island 02828",Located in Providence County,rhode-island
S H S Pest Control,www.shspestcontrol.com,1-401-849-0068,"Portsmouth, Rhode Island 02871",Located in Newport County,rhode-island
Aiken Pest Control,www.aikenpest.com,1-803-951-9190,"Aiken, South Carolina 29801",Located in Aiken County,south-carolina
Allpro Pest Management Inc,Allpropestmanagement.com,1-843-852-0230,"Charleston, South Carolina 29414",Located in Charleston County,south-carolina
Apex of Edisto Pest Management,www.apexofedisto.com,1-843-869-9006,"Edisto Island, South Carolina 29438",Located in Colleton County,south-carolina
Atlantic Inc Pest Management,www.atlanticpest.com,1-843-795-4010,"Charleston, South Carolina 29412",Located in Charleston County,south-carolina
Barker Controls Inc,www.barkercontrols.com,1-864-233-2145,"Greenville, South Carolina 29609",Located in Greenville County,south-carolina
Barrier Pest Services,barrierpestservices.com/,1-843-225-8250,"Charleston, South Carolina 29407",Located in Charleston County,south-carolina
Best Exterminating Inc,www.bestexterminating.net,1-843-235-2956,"Pawleys Island, South Carolina 29585",Located in Georgetown County,south-carolina
Best Pest Control,www.bestpestcontrol.net,1-864-229-7868,"Greenwood, South Carolina 29646",Located in Greenwood County,south-carolina
Black Pest Control,www.blackpest.com,1-843-863-9797,"Charleston, South Carolina 29406",Located in Charleston County,south-carolina
Borden Pest Control,bordenpestcontrol.com,1-803-935-0404,"North Augusta, South Carolina 29841",Located in Aiken County,south-carolina
Defense One Termite Pest Cntrl,www.defenseonetermite.com,1-843-760-9291,"North Charleston, South Carolina 29418",Located in Charleston County,south-carolina
Hilton Head Exterminators Inc,www.hiltonheadexterminators.com,1-843-681-2590,"Hilton Head Island, South Carolina 29926",Located in Beaufort County,south-carolina
Jury Pest Control Service LLC,www.jurypest.com,1-803-441-0007,"North Augusta, South Carolina 29841",Located in Aiken County,south-carolina
Ledford's Termite & Pest Cntrl,www.ledfordspestcontrol.com,1-843-766-8298,"Charleston, South Carolina 29407",Located in Charleston County,south-carolina
Ledford's Termite & Pest Cntrl,www.ledfordspestcontrol.com,1-803-754-3434,"Columbia, South Carolina 29204",Located in Richland County,south-carolina
Lightning Termite & Pest Control LLC,www.lightningtermite.com,1-843-569-0374,"Goose Creek, South Carolina 29445",Located in Berkeley County,south-carolina
Mr Kleanair Air Duct Service,www.mrkleanair.com,1-803-435-0435,"Manning, South Carolina 29102",Located in Clarendon County,south-carolina
Patriot Pest Management,www.patriotpestmgt.com,1-864-895-7299,"Taylors, South Carolina 29687",Located in Greenville County,south-carolina
Pest Force,www.thepestforce.com,1-843-236-1286,"Myrtle Beach, South Carolina 29588",Located in Horry County,south-carolina
Piedmont Pest Control Inc,www.piedmontpest.com,1-864-963-2847,"Simpsonville, South Carolina 29681",Located in Greenville County,south-carolina
Quality Pest Control,www.qualitypestdirect.com,1-864-944-7300,"Salem, South Carolina 29676",Located in Oconee County,south-carolina
Rollins Pest Control,www.rollinspc.com,1-843-658-7547,"Jefferson, South Carolina 29718",Located in Chesterfield County,south-carolina
Sargent Pest Solutions,www.sargentpest.com,1-864-915-5555,"Mauldin, South Carolina 29662",Located in Greenville County,south-carolina
Snake Chaser,www.thesnakechaser.com,1-843-399-5096,"Longs, South Carolina 29568",Located in Horry County,south-carolina
W E Black Termite & Pest Cntrl,www.weblackpestcontrol.com,1-864-375-1899,"Anderson, South Carolina 29624",Located in Anderson County,south-carolina
Yarbrough Termite & Pest,www.yarbroughpest.com,1-843-662-9481,"Hartsville, South Carolina 29550",Located in Darlington County,south-carolina
ADEE Honey Farms,www.adeehoneyfarms.com,1-605-627-5621,"Bruce, South Dakota 57220",Located in Brookings County,south-dakota
P & K Pest Control,www.pkpest.com,1-605-275-0405,"Sioux Falls, South Dakota 57105",Located in Minnehaha County,south-dakota
Absolute Pest Control,www.absolutepestco.com,1-615-220-1933,"Smyrna, Tennessee 37167",Located in Rutherford County,tennessee
Adrian Hale Pest Control,www.adrianhalepestcontrol.com,1-423-581-3828,"Morristown, Tennessee 37813",Located in Hamblen County,tennessee
All Pest Solutions Inc,www.allpestsolutionsinc.com,1-615-794-6535,"Franklin, Tennessee 37064",Located in Williamson County,tennessee
All-American Pest Control Inc,www.allamericanpestcontrol.com,1-615-883-8526,"Nashville, Tennessee 37214",Located in Davidson County,tennessee
"Allied Termite & Pest Control, Inc.",www.alliedpestcontrol.com/,1-901-754-0454,"Cordova, Tennessee 38016",Located in Shelby County,tennessee
Americare Pest & Termites,www.americareservices.com,1-615-893-7111,"Murfreesboro, Tennessee 37129",Located in Rutherford County,tennessee
Bacon Products Corporation,baconproducts.com,1-423-892-0414,"Chattanooga, Tennessee 37421",Located in Hamilton County,tennessee
Biocontrol Network LLC,www.biconet.com,1-615-370-4301,"Brentwood, Tennessee 37027",Located in Williamson County,tennessee
Burls Termite & Pest Control,burlstermite.com,1-931-967-4547,"Estill Springs, Tennessee 37330",Located in Franklin County,tennessee
Central Tennessee Termite-Pest,tnpest.com,1-931-526-2033,"Cookeville, Tennessee 38502",Located in Putnam County,tennessee
Chemscape Pest control- Termite and Lawncare,www.chemscape.net,1-615-826-0388,"Hendersonville, Tennessee 37075",Located in Sumner County,tennessee
Dart Pest Control,dartpestcontrol.com,1-901-384-6071,"Memphis, Tennessee 38134",Located in Shelby County,tennessee
David Mayfield Pest Control,mayfieldbrospestcontrol.com,1-423-476-6000,"Cleveland, Tennessee 37311",Located in Bradley County,tennessee
Environmental Pest Management,www.heritagetermite.com,1-865-525-8900,"Knoxville, Tennessee 37919",Located in Knox County,tennessee
Foundation Pest Control,www.foundationpestcontrol.com,1-901-302-5206,"Arlington, Tennessee 38002",Located in Shelby County,tennessee
Germantown Pest,exterminatormemphistn.com,1-901-290-7646,"Collierville, Tennessee 38017",Located in Shelby County,tennessee
Golden Circle Exterminators,www.gcext.com,1-731-668-4887,"Jackson, Tennessee 38305",Located in Madison County,tennessee
Guarantee Ortex Exterminating,ortexpest.com,1-931-645-0382,"Clarksville, Tennessee 37040",Located in Montgomery County,tennessee
Hill's Termite & Pest Control,www.hillspestcontrol.com,1-931-526-5212,"Cookeville, Tennessee 38501",Located in Putnam County,tennessee
Home Pest Control of Middle TN,www.homepest.net,1-615-874-8600,"Nashville, Tennessee 37214",Located in Davidson County,tennessee
"Inman-Murphy, Inc.",inman-murphy.com,1-901-388-0852,"Millington, Tennessee 38053",Located in Shelby County,tennessee
James Pest Management,jamespestmanagement.com,1-901-290-7663,"Memphis, Tennessee 38118",Located in Shelby County,tennessee
Lady Bug Exterminating CO Inc,www.ladybugpco.com,1-423-698-5769,"Chattanooga, Tennessee 37404",Located in Hamilton County,tennessee
Leo's Exterminating Services Inc,www.leospest.com,1-423-968-3442,"Bristol, Tennessee 37620",Located in Sullivan County,tennessee
Lincoln County Exterminating,www.lcexterminating.com,1-931-433-4931,"Fayetteville, Tennessee 37334",Located in Lincoln County,tennessee
Mayfield Brothers Pest Control,www.mayfieldbrospestcontrol.com,1-423-892-5950,"Chattanooga, Tennessee 37421",Located in Hamilton County,tennessee
MC Daniel Pest Control,mcdanielpestcontrol.com,1-931-359-2222,"Lewisburg, Tennessee 37091",Located in Marshall County,tennessee
Mosquito Squad of Chattanooga,chattanooga.mosquitosquad.com,1-423-386-5943,"Chattanooga, Tennessee 37415",Located in Hamilton County,tennessee
Nisus Corporation,nisuscorp.com,1-865-577-6119,"Rockford, Tennessee 37853",Located in Blount County,tennessee
Omega Termite & Pest Control,www.omegapestcontrol.net,1-615-672-3010,"White House, Tennessee 37188",Located in Robertson County,tennessee
Ortex Systems Inc,www.ortexpest.com/,1-615-792-3232,"Clarksville, Tennessee 37040",Located in Montgomery County,tennessee
Pest Patrol,www.wekillbugz.com,1-901-380-2847,"Cordova, Tennessee 38018",Located in Shelby County,tennessee
Priority Pest Protection,www.prioritypestprotection.com/,1-615-758-6502,"mount juliet, Tennessee 37122",Located in Wilson County,tennessee
Proven Pest Management,www.provenpest.com,1-901-377-8946,"Bartlett, Tennessee 38135",Located in Shelby County,tennessee
Pureguard Pest Control,www.pureguardpestcontrol.com/,1-423-949-5400,"Dunlap, Tennessee 37327",Located in Sequatchie County,tennessee
Rocky Top Pest Control,www.rockytoppestcontrol.com,1-423-613-9955,"Newport, Tennessee 37821",Located in Cocke County,tennessee
Servall Gutter Co,www.servallmartin.com,1-731-885-4916,"Martin, Tennessee 38237",Located in Weakley County,tennessee
Sherrill Pest Contrl,www.sherrillpestcontrol.com,1-931-728-4290,"Manchester, Tennessee 37355",Located in Coffee County,tennessee
Sherrill Pest Control,sherrillpestcontrol.com,1-931-454-0788,"Murfreesboro, Tennessee 37130",Located in Rutherford County,tennessee
Tennessee Technicians,tennesseetechnicians.com,1-423-503-0512,"Cleveland, Tennessee 37323",Located in Bradley County,tennessee
Turf Managers LLC,www.turfmanagersllc.com,1-615-269-7706,"Nashville, Tennessee 37211",Located in Davidson County,tennessee
Volunteer Rid A Pest LLC,www.volpest.com,1-423-698-7205,"Cleveland, Tennessee 37312",Located in Bradley County,tennessee
Wildlife Solvers,wildlifesolversonline.com,1-901-485-5564,"Memphis, Tennessee 38133",Located in Shelby County,tennessee
Wolf Pest Control,wolfpestcontrol.com/,1-865-450-5040,"Knoxville, Tennessee 37921",Located in Knox County,tennessee
3BeeGuys Bee Removal,www.3beeguys.com,1-844-323-3489,"Conroe, Texas 77385",Located in Montgomery County,texas
911 Wildlife,www.911wildlife.com,1-903-893-2911,"Sherman, Texas 75090",Located in Grayson County,texas
A Better Choice Pest Control,www.betterchoicepest.com,1-512-312-2160,"Buda, Texas 78610",Located in Hays County,texas
A Pest Professional Inc,www.apestpro.com,1-817-261-4760,"Arlington, Texas 76015",Located in Tarrant County,texas
A-Zap Pest Control,castrovillepestcontrolcompany.com,1-830-931-1292,"Devine, Texas 78016",Located in Medina County,texas
Aardvark Affordable Pest,www.aardvarkaffordablepestcontrol.com,1-806-674-4216,"Amarillo, Texas 79109",Located in Randall County,texas
ABC Pest Control,goanteater.com,1-512-599-9500,"San Antonio, Texas 78233",Located in Bexar County,texas
Absolute Pest Management,absolutepestmgmt.com/,1-512-444-0262,"Austin, Texas 78745",Located in Travis County,texas
Absolute Termite & Pest CNTRL,www.sugarlandpestcontrol.org,1-281-265-0335,"Sugar Land, Texas 77478",Located in Fort Bend County,texas
Advantage Pest Control,advantagectx.com,1-254-913-2552,"Temple, Texas 76504",Located in Bell County,texas
All Seasons Pest Control,www.all-seasonspestcontrol.com,1-817-282-2188,"Hurst, Texas 76053",Located in Tarrant County,texas
All-Star Pest Control,allstar-pestcontrol.com,1-903-465-5099,"Denison, Texas 75021",Located in Grayson County,texas
Ameri-Tech Termite & Pest Inc,www.ameritechpest.com,1-214-589-2844,"Fort Worth, Texas 76179",Located in Tarrant County,texas
Ameritech Pest Control,www.ameritechpest.com,1-817-589-2844,"Fort Worth, Texas 76179",Located in Tarrant County,texas
Apple Pest Control & Lawn,www.applepestcontrol.com,1-210-695-8946,"Helotes, Texas 78023",Located in Bexar County,texas
Asash Pest Control,www.asashpestcontrol.com,1-956-724-8125,"Laredo, Texas 78040",Located in Webb County,texas
Avian Flyaway Inc,avianflyawayinc.com,1-972-771-6679,"Rockwall, Texas 75087",Located in Rockwall County,texas
Barfield Home Inspections,bhi-inspect.com,1-409-745-5016,"Orange, Texas 77632",Located in Orange County,texas
Bat & Pigeon Control Company,www.glasscaretx.com,1-210-599-3000,"San Antonio, Texas 78216",Located in Bexar County,texas
Bay City Feed,www.baycityfeed.com,1-979-245-2712,"Bay City, Texas 77414",Located in Matagorda County,texas
Bell County Pest Control,bellpests.com,1-254-771-1060,"Belton, Texas 76513",Located in Bell County,texas
BES Tex,www.bes-tex.com,1-325-651-6995,"San Angelo, Texas 76903",Located in Tom Green County,texas
Bevis Pest Control,www.bevispestcontrol.com,1-409-945-4214,"Texas City, Texas 77590",Located in Galveston County,texas
Bill Clark Pest Control Inc,billclarkbugsperts.com,1-409-886-2828,"Orange, Texas 77630",Located in Orange County,texas
Biological Tech Pest Control,www.biotechpest.com,1-281-296-6022,"Spring, Texas 77386",Located in Montgomery County,texas
Blue Planet Pest Control,www.blueplanetpestcontrol.com,1-512-333-4667,"Austin, Texas 78749",Located in Travis County,texas
Bob Klepac Exterminating Service,www.bobklepac.com,1-979-245-5700,"Bay City, Texas 77414",Located in Matagorda County,texas
Brown Termite & Pest Control,www.brownspestcontrol.net,1-254-715-8423,"Waco, Texas 76711",Located in McLennan County,texas
Budget Pest Control,www.budgetpest.biz,1-254-983-1955,"Temple, Texas 76501",Located in Bell County,texas
Budget Pest Control,281deadbug.com,1-281-332-3284,"Pearland, Texas 77581",Located in Brazoria County,texas
Bug Company,thebugcompany.com,1-281-265-2455,"Sugar Land, Texas 77479",Located in Fort Bend County,texas
C & B Pest Control,www.cbpestcontrol.com,1-210-656-7169,"San Antonio, Texas 78217",Located in Bexar County,texas
C & D Pest and Termite Control Inc.,www.amarillotxpestcontrol.com,1-806-382-4922,"Amarillo, Texas 79119",Located in Randall County,texas
CedarCide,www.cedarcide.com/,1-800-842-1464,"Lewisville, Texas 75067",Located in Denton County,texas
Central Premier Pest Control LLC.,cppestcontrol.com,1-830-660-1928,"Canyon Lake, Texas 78133",Located in Comal County,texas
Chase Pest Control,www.chasepestcontrol.com,1-281-296-2847,"Conroe, Texas 77301",Located in Montgomery County,texas
Chase Pest Control & Lawn Care,chasepestcontrol.com,1-936-441-2847,"Conroe, Texas 77301",Located in Montgomery County,texas
Chem-Pro,www.chemprousa.com,1-281-298-7626,"Spring, Texas 77386",Located in Montgomery County,texas
Chem-Tech Termite & Pest,www.chemtech-bugs.com,1-281-391-0333,"Katy, Texas 77494",Located in Fort Bend County,texas
Coast Pest Control,www.coastpestcontrol.com,1-979-297-3887,"Lake Jackson, Texas 77566",Located in Brazoria County,texas
Corpest Services,www.corpest.com,1-361-994-0207,"Corpus Christi, Texas 78418",Located in Nueces County,texas
Critter Evictor,www.animalcontrolsanantonio.com,1-210-643-1352,"San Antonio, Texas 78230",Located in Bexar County,texas
D & V Pest Control,www.dvpest.com,1-817-489-2058,"Newark, Texas 76071",Located in Wise County,texas
Don's Pest Control Inc,donspestcontrol.com,1-281-879-9261,"Sugar Land, Texas 77478",Located in Fort Bend County,texas
Double D Termite & Pest Cntrl,www.doubledtermite.com,1-817-558-7378,"Cleburne, Texas 76033",Located in Johnson County,texas
Effective Pest Control LC,www.rockwallpestcontrol.com,1-972-771-6191,"Rockwall, Texas 75087",Located in Rockwall County,texas
Falco Pest Control,www.falcopest.com,1-830-992-2900,"Fredericksburg, Texas 78624",Located in Gillespie County,texas
Finley Termite Pest Control,www.finleypestcontrol.com,1-817-457-9897,"Arlington, Texas 76016",Located in Tarrant County,texas
First Step Pest Control,www.mybugmanonline.com,1-817-479-6619,"Keller, Texas 76248",Located in Tarrant County,texas
Foss Pest Control,www.fosspest.com,1-830-238-4105,"Ingram, Texas 78025",Located in Kerr County,texas
G & G Apartment Services LLC,www.gandgapartmentservices.com,1-972-509-8882,"Murphy, Texas 75094",Located in Collin County,texas
Animal News,news.regionaldirectory.us/animal.php,about the topic,Recent news headlines,Animal,texas
Gillen Pest Control,www.gillenpestcontrol.com,1-281-342-6969,"Richmond, Texas 77469",Located in Fort Bend County,texas
Gold Star Exterminators,www.goldstarexterminators.net,1-830-608-1318,"New Braunfels, Texas 78130",Located in Comal County,texas
HSE Service,highsierraservice.com,1-830-620-4440,"New Braunfels, Texas 78130",Located in Comal County,texas
J & J Pest Control Inc,jjpest.com,1-512-452-2401,"Austin, Texas 78757",Located in Travis County,texas
Jenkins Pest & Lawn Services,jenkinspest.com,1-210-979-7378,"San Antonio, Texas 78216",Located in Bexar County,texas
Justice Pest Service,www.justicepestservices.com,1-512-261-2465,"Austin, Texas 78734",Located in Travis County,texas
Mister-B Pest Control,www.mr-b-sa.com,1-210-659-0609,"Converse, Texas 78109",Located in Bexar County,texas
Mosquito Squad of South Central Texas,sctexas.mosquitosquad.com,1-830-515-5595,"New Braunfels, Texas 78132",Located in Comal County,texas
Mosquito Squad of Victoria,victoria.mosquitosquad.com,1-361-894-8643,"Victoria, Texas 77901",Located in Victoria County,texas
Nature's Own Pest Control,www.naturesownpestcontrol.org,1-512-454-0700,"Austin, Texas 78757",Located in Travis County,texas
Naturescape,www.naturescape-tx.com,1-830-257-2429,"Kerrville, Texas 78028",Located in Kerr County,texas
Nu Way Pest Control,www.nuwaypestcontrol.com,1-210-520-0500,"San Antonio, Texas 78238",Located in Bexar County,texas
One Way Pest Control,www.onewaypestcontrol.com,1-210-930-0280,"San Antonio, Texas 78217",Located in Bexar County,texas
Pape's Orchard & Farm Equipment,www.papepecan.com,1-830-372-2850,"Seguin, Texas 78155",Located in Guadalupe County,texas
Pest Control Fort Worth,www.pestcontrolfortworth.net/,1-817-484-0395,"Fort Worth, Texas 76133",Located in Tarrant County,texas
Pest Control Inc Research,www.researchpest.com,1-512-258-5228,"Cedar Park, Texas 78613",Located in Williamson County,texas
Pest Control Service Inc,www.pestcontrolservicesinc.com,1-361-854-2833,"Corpus Christi, Texas 78416",Located in Nueces County,texas
Pestpro Of San Antonio,www.pestprosa.com,1-210-723-7254,"San Antonio, Texas 78228",Located in Bexar County,texas
Pied Piper Traps,piedpipertraps.com,1-940-682-4663,"Weatherford, Texas 76088",Located in Parker County,texas
Preston Pest Control,www.preston-pest-control.com/,1-210-503-5908,"San Antonio, Texas 78266",Located in Comal County,texas
Professional Solutions Termite & Pest,www.prosolutionspestcontrol.com,1-817-276-0975,"Arlington, Texas 76010",Located in Tarrant County,texas
Ranger Termite Pest Inc,www.rangertermiteandpestcontrol.com,1-512-249-0326,"Austin, Texas 78729",Located in Williamson County,texas
Real Estate Council-Sa,recsanantonio.com,1-210-804-1155,"San Antonio, Texas 78217",Located in Bexar County,texas
Real Green Lawn Care,www.realgreenlawns.com,1-512-454-7336,"Austin, Texas 78737",Located in Hays County,texas
Roberts Termite & Pest,robertspestcontrol.com,1-512-444-0132,"Austin, Texas 78704",Located in Travis County,texas
Roberts Termite & Pest Control,www.robertspestcontrol.com,1-512-444-1915,"Austin, Texas 78704",Located in Travis County,texas
Southwestern A-1 Pest Control,www.swa1pc.com,1-432-263-0441,"Big Spring, Texas 79720",Located in Howard County,texas
Spider Be Gone Systems,www.spiderbegone.com,1-936-594-0279,"Trinity, Texas 75862",Located in Trinity County,texas
Truly Nolen Pest & Termite Control,www.trulynolen.com/locations/TX/Keller/Keller.asp,1-682-593-2556,"Keller, Texas 76248",Located in Tarrant County,texas
Truly Nolen Pest & Termite Control,www.trulynolen.com/locations/TX/Fort-Worth/Fort-Worth.asp,1-682-478-2997,"Fort Worth, Texas 76119",Located in Tarrant County,texas
Truly Nolen Pest & Termite Control,www.trulynolen.com/locations/TX/El-Paso/El-Paso.asp,1-915-229-7046,"El Paso, Texas 79925",Located in El Paso County,texas
Truly Nolen Pest Control,www.trulynolen.com/locations/TX/Lewisville/Dallas.asp,1-972-420-4394,"Lewisville, Texas 75057",Located in Denton County,texas
Venus Pest Company,www.venuspest.com,1-979-774-0486,"Bryan, Texas 77802",Located in Brazos County,texas
West Texas Pest Control Inc,westtexaspestcontrol.com,1-806-371-9447,"Amarillo, Texas 79120",Located in Potter County,texas
"White Knight Pest Control, Inc.",www.whiteknightpest.com,1-512-535-3008,"Buda, Texas 78610",Located in Hays County,texas
Truly Nolen Pest Control,www.trulynolen.com/locations/UT/Midvale/Salt-Lake.asp,1-385-237-0146,"Bountiful, Utah 84010",Located in Davis County,utah
Pest Professional Inc,www.pestpro.net,1-802-862-8815,"South Hero, Vermont 05486",Located in Grand Isle County,vermont
"1st Choice Pest Control, LLC",www.1stchoicepc.com,1-757-892-4913,"Chesapeake, Virginia 23323",Located in Chesapeake City County,virginia
A-1 Inc Exterminators,www.a1inc.com,1-757-498-2800,"Chesapeake, Virginia 23320",Located in Chesapeake City County,virginia
Aardvark the Exterminator,www.a1inc.com,1-757-539-1143,"Chesapeake, Virginia 23320",Located in Chesapeake City County,virginia
ABC Termite & Pest Control,www.abctpc.com,1-757-422-0409,"Virginia Beach, Virginia 23454",Located in Virginia Beach City County,virginia
Alexandria Pest Service,alexandriapestservice.com,1-703-923-0925,"Springfield, Virginia 22150",Located in Fairfax County,virginia
APRO Pest Control,www.apropest.com,1-703-858-2776,"Leesburg, Virginia 20175",Located in Loudoun County,virginia
Brown Exterminating Company,www.brownexterminatingco.com,1-703-519-6464,"Alexandria, Virginia 22306",Located in Fairfax County,virginia
Coastal Pest Control,www.coastalpestcontrol.com,1-757-539-7883,"Suffolk, Virginia 23434",Located in Suffolk City County,virginia
Commonwealth Exterminators Inc,www.commext.com,1-434-848-9800,"Lawrenceville, Virginia 23868",Located in Brunswick County,virginia
Csi Home & Commercial Services,csiofvirginia.com/,1-540-710-0776,"Leesburg, Virginia 20175",Located in Loudoun County,virginia
Degesch America Inc,degeschamerica.com,1-804-231-1000,"Richmond, Virginia 23224",Located in Richmond City County,virginia
Ehrlich Pest Control,www.jcehrlich.com/richmond-va/,1-855-655-6589,"Chesapeake, Virginia 23321",Located in Chesapeake City County,virginia
Epling's Termite & Pest Cntrl,www.eplingspestcontrol.com,1-804-642-3775,"Gloucester, Virginia 23061",Located in Gloucester County,virginia
Fox Pest Control,fox-pest-va.com/,1-757-206-2718,"Virginia Beach, Virginia 23464",Located in Virginia Beach City County,virginia
Green Pest Services,greenpestservices.net/manassas-va/pest-control,1-703-988-4520,"Alexandria, Virginia 22301",Located in Alexandria City County,virginia
Lamb Exterminating,www.lambexterminating.com,1-804-694-6166,"Gloucester, Virginia 23061",Located in Gloucester County,virginia
Lemarr Group,www.lemarrpestcontrol.com,1-540-364-6084,"Marshall, Virginia 20115",Located in Fauquier County,virginia
Marks Pest Control Inc,www.markspest.com,1-757-258-8700,"Williamsburg, Virginia 23188",Located in James City County,virginia
Mitchell Pest Services,www.mitchellpest.com/pest-control-service-richmond-va/,1-804-505-2300,"Richmond, Virginia 23230",Located in Henrico County,virginia
Olde Towne Pet Resort,www.oldetownepetresort.com,1-703-455-9000,"Springfield, Virginia 22150",Located in Fairfax County,virginia
P E Systems,www.pesystems.com,1-703-691-3498,"Fairfax, Virginia 22030",Located in Fairfax City County,virginia
Potomac Waterproofing,potomacwaterproofing.com,1-703-392-6353,"Manassas, Virginia 20111",Located in Prince William County,virginia
Professional Tech Termite & Pest,www.protechpest.com,1-703-440-8000,"Springfield, Virginia 22150",Located in Fairfax County,virginia
Southern Pest Control,www.southernpestcontrol.com/,1-757-877-7766,"Virginia Beach, Virginia 23462",Located in Virginia Beach City County,virginia
Suffolk Pest Control,www.suffolkpestcontrol.net,1-757-934-2223,"Suffolk, Virginia 23434",Located in Suffolk City County,virginia
Superior Bed Bug Solutions,www.superiorbedbugsolutions.com,1-703-739-2847,"Sterling, Virginia 20166",Located in Loudoun County,virginia
Superior Termite & Pest Cntrl,www.superiorpestcontrol.com,1-757-499-3999,"Virginia Beach, Virginia 23462",Located in Virginia Beach City County,virginia
Sure Shot Pest Control Inc,www.sureshotpest.com,1-703-690-9800,"Lorton, Virginia 22079",Located in Fairfax County,virginia
Terminix,www.insect.com/,1-757-357-7075,"Virginia Beach, Virginia 23452",Located in Virginia Beach City County,virginia
U S Termite & Moisture Control,www.ustermite.com,1-757-436-4013,"Chesapeake, Virginia 23320",Located in Chesapeake City County,virginia
ZooPro Animal Removal,www.zooproanimalremoval.com,1-757-333-3391,"Virginia Beach, Virginia 23466",Located in Virginia Beach City County,virginia
A-PRO Home Inspection Service,www.a-pro.net/oliver_grimm,1-425-508-7324,"Everett, Washington 98204",Located in Snohomish County,washington
All Seasons Pest Control,www.allseasonspest.com,1-253-535-5600,"Spanaway, Washington 98387",Located in Pierce County,washington
Ampm Exterminators L.L.C.,www.ampmexterminators.com,1-206-571-7580,"Seattle, Washington 98199",Located in King County,washington
Angeles Pest Control,www.angelespestcontrol.com,1-360-452-1727,"Port Angeles, Washington 98362",Located in Clallam County,washington
Bulwark Exterminating,www.bulwarkpestcontrol.com/tacoma,1-253-779-9999,"Puyallup, Washington 98375",Located in Pierce County,washington
Cascade Weed & Pest,www.cascadeweed.com,1-509-682-1249,"Chelan, Washington 98816",Located in Chelan County,washington
Chuck Sullivan Exterminators,peststop.com,1-360-458-7970,"Olympia, Washington 98512",Located in Thurston County,washington
Desert Green Lawn & Tree Care,www.desertgreenllc.com,1-509-628-8630,"Richland, Washington 99352",Located in Benton County,washington
Franklin County Mosquito Control District,fcmcd.org,1-509-545-4083,"Pasco, Washington 99301",Located in Franklin County,washington
Guard Pest Control,www.guardpestcontrol.com,1-206-486-1110,"Snohomish, Washington 98290",Located in Snohomish County,washington
Hendrikus Organics,www.hendrikus.com,1-425-392-9977,"Issaquah, Washington 98027",Located in King County,washington
Insight Pest Control - Seattle,insightpestnorthwest.com/seattle/pest-control-service/,1-206-453-0183,"Seattle, Washington 98107",Located in King County,washington
Lind Pest Control Inc,www.lindpestcontrol.com,1-253-503-1100,"Tacoma, Washington 98406",Located in Pierce County,washington
Paratex Pest Control,www.paratex.com,1-253-572-9434,"Seattle, Washington 98101",Located in King County,washington
Pointe Pest Control,pointepest.com/locations/kennewick/,1-509-591-0555,"Walla Walla, Washington 99362",Located in Walla Walla County,washington
Prime Pest Control,www.primepestcontrol.com,1-509-466-8585,"Spokane, Washington 99217",Located in Spokane County,washington
Rambo Total Pest Control,www.rambopest.com,1-253-848-6000,"Puyallup, Washington 98374",Located in Pierce County,washington
Rodgers Landscaping,www.kitsapcountrynursery.com,1-360-478-0285,"Bremerton, Washington 98312",Located in Kitsap County,washington
Scientific Spray Service Inc,www.scientificspray.com,1-253-927-1977,"Tacoma, Washington 98422",Located in Pierce County,washington
Sprague Pest Control,www.spraguepest.com,1-206-323-5660,"Seattle, Washington 98144",Located in King County,washington
Sprague Pest Solutions,spraguepest.com,1-253-272-4400,"Tacoma, Washington 98402",Located in Pierce County,washington
Sprague Pest Solutions,www.spraguepest.com,1-253-572-6500,"Tacoma, Washington 98402",Located in Pierce County,washington
Sun Pest Management,www.sunpest.com,1-509-758-5949,"Clarkston, Washington 99403",Located in Asotin County,washington
Whitworth Pest Solutions,www.whitworthpestsolutions.com,1-206-248-2222,"Kent, Washington 98030",Located in King County,washington
Willards Pest Control Company,www.willardspestcontrol.com,1-206-368-8184,"Kirkland, Washington 98034",Located in King County,washington
"ABC Exterminating, Inc",www.abcext.com,1-715-453-8737,"Tomahawk, Wisconsin 54487",Located in Lincoln County,wisconsin
Alternative Pest Solutions LLC,www.alternativepestsolutions.com/,1-888-655-4084,"Madison, Wisconsin 53707",Located in Dane County,wisconsin
American Animal Control,www.americananimalcontrol-mnwi.com,1-715-834-9095,"Roberts, Wisconsin 54023",Located in Saint Croix County,wisconsin
Batzner Pest Management Inc,www.batzner.com,1-262-797-4160,"New Berlin, Wisconsin 53151",Located in Waukesha County,wisconsin
Bell Laboratories Inc,www.belllabs.com,1-608-241-0202,"Madison, Wisconsin 53704",Located in Dane County,wisconsin
Brent's Spectrum Pest Control,www.spectrumpestcontrol.com,1-262-657-5665,"Kenosha, Wisconsin 53140",Located in Kenosha County,wisconsin
Bright Sight Window Cleaning,www.brightsightwindowcleaning.com,1-920-707-1549,"Menasha, Wisconsin 54952",Located in Winnebago County,wisconsin
Door County Pest Control,www.batfree.com,1-920-743-9049,"Sturgeon Bay, Wisconsin 54235",Located in Door County,wisconsin
Genrich Plumbing & Heating Co,www.genrichplumbing.com/,1-715-675-2000,"Wausau, Wisconsin 54401",Located in Marathon County,wisconsin
Hacco Inc,hacco.com,1-920-326-2461,"Randolph, Wisconsin 53956",Located in Dodge County,wisconsin
Liphatech Inc,www.liphatech.com,1-414-410-7200,"Milwaukee, Wisconsin 53209",Located in Milwaukee County,wisconsin
Midwest Pest Contol,midwestpestcontrol.com,1-262-547-9900,"Waukesha, Wisconsin 53189",Located in Waukesha County,wisconsin
Mosquito Guy,themosquitoguy.com,1-262-521-1258,"Waukesha, Wisconsin 53186",Located in Waukesha County,wisconsin
Mosquito Squad of LaCrosse,lacrosse.mosquitosquad.com,1-608-374-2847,"Tomah, Wisconsin 54660",Located in Monroe County,wisconsin
Nuisance Pro,nuisancepro.com/,1-920-470-3887,"Neenah, Wisconsin 54956",Located in Winnebago County,wisconsin
Peterson Pest Management,www.petersonpest.com,1-608-873-7655,"Stoughton, Wisconsin 53589",Located in Dane County,wisconsin
Premier Pest Elimination,www.beingbugged.com,1-920-648-7990,"Lake Mills, Wisconsin 53551",Located in Jefferson County,wisconsin
Safeway Pest Control CO Inc,www.safewaypest.net,1-262-679-4422,"Muskego, Wisconsin 53150",Located in Waukesha County,wisconsin
Tomahawk Live Trap Co,livetrap.com,1-715-453-3550,"Tomahawk, Wisconsin 54531",Located in Oneida County,wisconsin
Trap Professional,trappro.com,1-202-232-8727,"Washington, DC 20020",Located in District of Columbia,washington-dc
